{
  "version": 0.6,
  "generator": "Overpass API 0.7.62.8 e802775f",
  "osm3s": {
    "timestamp_osm_base": "2025-10-28T10:10:30Z",
    "timestamp_areas_base": "2025-10-28T06:44:55Z",
    "copyright": "The data included in this document is from www.openstreetmap.org. The data is made available under ODbL."
  },
  "elements": [
    {
      "type": "node",
      "id": 259845846,
      "lat": 52.4913696,
      "lon": 13.3931533,
      "tags": {
        "addr:city": "Berlin",
        "addr:country": "DE",
        "addr:housenumber": "18",
        "addr:postcode": "10961",
        "addr:street": "Gneisenaustraße",
        "addr:suburb": "Kreuzberg",
        "amenity": "nightclub",
        "name": "Junction-Bar",
        "phone": "+49306946602",
        "website": "https://www.junction-bar.de/",
        "wheelchair": "no"
      }
    },
    {
      "type": "node",
      "id": 262818281,
      "lat": 52.5232268,
      "lon": 13.4164254,
      "tags": {
        "addr:city": "Berlin",
        "addr:housenumber": "7",
        "addr:postcode": "10178",
        "addr:street": "Alexanderstraße",
        "amenity": "nightclub",
        "check_date": "2025-06-30",
        "check_date:smoking": "2025-06-30",
        "name": "ASeven Club",
        "opening_hours": "Fr 23:30-06:00, Sa 19:00-06:00",
        "smoking": "no",
        "website": "https://www.aseven.de",
        "wheelchair": "limited"
      }
    },
    {
      "type": "node",
      "id": 339749949,
      "lat": 52.5046782,
      "lon": 13.4490212,
      "tags": {
        "addr:city": "Berlin",
        "addr:country": "DE",
        "addr:housenumber": "18",
        "addr:postcode": "10245",
        "addr:street": "Warschauer Platz",
        "addr:suburb": "Friedrichshain",
        "amenity": "nightclub",
        "contact:email": "hallo@matrix-berlin.de",
        "contact:phone": "+49 30 29369990",
        "contact:website": "https://www.matrix-berlin.de/",
        "level": "0",
        "name": "Matrix",
        "opening_hours": "Mo-Su 22:00-07:00",
        "smoking": "isolated",
        "toilets:wheelchair": "no",
        "wheelchair": "limited",
        "wikidata": "Q552863",
        "wikimedia_commons": "Category:Matrix (club)",
        "wikipedia": "en:Matrix (club)"
      }
    },
    {
      "type": "node",
      "id": 360111407,
      "lat": 52.4992172,
      "lon": 13.4450748,
      "tags": {
        "addr:city": "Berlin",
        "addr:country": "DE",
        "addr:housenumber": "7",
        "addr:postcode": "10997",
        "addr:street": "Cuvrystraße",
        "addr:suburb": "Kreuzberg",
        "amenity": "nightclub",
        "check_date:opening_hours": "2025-01-20",
        "contact:facebook": "https://www.facebook.com/lidoberlin/",
        "contact:instagram": "lidoberlin",
        "contact:phone": "+49 30 69566840",
        "contact:website": "https://www.lido-berlin.de/",
        "drink:club-mate": "yes",
        "live_music": "yes",
        "name": "Lido",
        "opening_hours:signed": "no",
        "smoking": "isolated",
        "toilets:wheelchair": "yes",
        "wheelchair": "yes",
        "wheelchair:description": "Stufe am Haupteingang, Rampe vorhanden. Für das rolligerechte WC bitte vor Ort nach dem Schlüssel fragen.",
        "wikidata": "Q100256393",
        "wikimedia_commons": "Category:Lido (Berlin)"
      }
    },
    {
      "type": "node",
      "id": 373095675,
      "lat": 52.5441625,
      "lon": 13.3787124,
      "tags": {
        "addr:city": "Berlin",
        "addr:housenumber": "46",
        "addr:postcode": "13357",
        "addr:street": "Hochstraße",
        "amenity": "nightclub",
        "check_date": "2023-08-29",
        "name": "Humboldthain Club",
        "opening_hours": "Tu 18:00-04:00, Th 19:00-04:00, Sa-Su 23:00-09:00",
        "website": "https://www.humboldthain.com/",
        "wheelchair": "no"
      }
    },
    {
      "type": "node",
      "id": 383210462,
      "lat": 52.5045582,
      "lon": 13.4489112,
      "tags": {
        "amenity": "nightclub",
        "check_date": "2024-11-26",
        "check_date:opening_hours": "2024-11-26",
        "name": "Narva Lounge",
        "opening_hours:signed": "no",
        "wheelchair": "yes"
      }
    },
    {
      "type": "node",
      "id": 410135945,
      "lat": 52.4974686,
      "lon": 13.4310967,
      "tags": {
        "addr:postcode": "10999",
        "amenity": "nightclub",
        "check_date": "2023-11-01",
        "name": "Wild at Heart",
        "opening_hours": "\"When they host a concert, doors opens at 20h. Otherwise they are closed\"",
        "website": "http://wildatheartberlin.de",
        "wheelchair": "no"
      }
    },
    {
      "type": "node",
      "id": 429735547,
      "lat": 52.5264743,
      "lon": 13.39691,
      "tags": {
        "addr:city": "Berlin",
        "addr:country": "DE",
        "addr:housenumber": "24",
        "addr:postcode": "10117",
        "addr:street": "Auguststraße",
        "addr:suburb": "Mitte",
        "amenity": "nightclub",
        "check_date": "2024-08-17",
        "contact:facebook": "https://www.facebook.com/claerchens.ballhaus/",
        "contact:instagram": "https://www.instagram.com/claerchens_ballhaus",
        "contact:phone": "+49 30 2829295",
        "email": "info@claerchensball.haus",
        "name": "Clärchens Ballhaus",
        "opening_hours": "Tu-Fr 17:00-23:00; Sa-Su 14:00-23:00",
        "smoking": "outside",
        "toilets:wheelchair": "no",
        "website": "https://www.claerchensball.haus/",
        "wheelchair": "no",
        "wikidata": "Q1103846",
        "wikimedia_commons": "Category:Clärchens Ballhaus",
        "wikipedia": "de:Clärchens Ballhaus"
      }
    },
    {
      "type": "node",
      "id": 461623768,
      "lat": 52.5179462,
      "lon": 13.441495,
      "tags": {
        "amenity": "nightclub",
        "name": "Sun Chiller Lounge",
        "old_name": "Café Warschau",
        "opening_hours": "We-Sa 16:00-24:00+, Su 14:00-24:00+; PH 14:00-24:00+",
        "wheelchair": "limited"
      }
    },
    {
      "type": "node",
      "id": 475153994,
      "lat": 52.5086309,
      "lon": 13.4363946,
      "tags": {
        "addr:city": "Berlin",
        "addr:country": "DE",
        "addr:housenumber": "8",
        "addr:postcode": "10243",
        "addr:street": "Straße der Pariser Kommune",
        "addr:suburb": "Friedrichshain",
        "alt_name": "Postbahnhof am Ostbahnhof",
        "amenity": "nightclub",
        "contact:email": "events@postbahnhof.com",
        "contact:facebook": "https://www.facebook.com/PostbahnhofEvent/",
        "contact:mobile": "+49 152 5374 4760",
        "contact:website": "https://postbahnhof.com/",
        "name": "Postbahnhof",
        "old_name": "Fritzclub",
        "wheelchair": "yes",
        "wikidata": "Q62011644",
        "wikimedia_commons": "Category:Postbahnhof (venue)"
      }
    },
    {
      "type": "node",
      "id": 485354535,
      "lat": 52.4973833,
      "lon": 13.4530728,
      "tags": {
        "amenity": "nightclub",
        "name": "Glashaus"
      }
    },
    {
      "type": "node",
      "id": 485640732,
      "lat": 52.4973901,
      "lon": 13.4653065,
      "tags": {
        "addr:city": "Berlin",
        "addr:country": "DE",
        "addr:housenumber": "70",
        "addr:postcode": "10245",
        "addr:street": "Alt-Stralau",
        "addr:suburb": "Friedrichshain",
        "amenity": "nightclub",
        "check_date:currency:XBT": "2024-04-19",
        "check_date:opening_hours": "2025-10-14",
        "contact:fax": "+49 30 25041427",
        "contact:instagram": "https://www.instagram.com/wilderenate",
        "contact:phone": "+49 30 25041426",
        "contact:ra": "https://ra.co/clubs/8556",
        "contact:website": "https://www.renate.cc",
        "currency:XBT": "no",
        "drink:club-mate": "served",
        "loc_name": "Renate",
        "name": "Zur Wilden Renate",
        "name:en": "Wilde Renate",
        "old_name": "Salon zur Wilden Renate",
        "opening_hours:description": "\"At night. since 23.00h till early in the morning.\"",
        "opening_hours:signed": "no",
        "operator": "Zur Wilden Renate oHG",
        "outdoor_seating": "yes",
        "payment:credit_cards": "yes",
        "payment:debit_cards": "yes",
        "payment:lightning": "no",
        "payment:lightning_contactless": "no",
        "payment:onchain": "no",
        "smoking": "yes",
        "start_date": "2007-09",
        "wheelchair": "no",
        "wikidata": "Q21036513",
        "wikipedia": "de:Wilde Renate"
      }
    },
    {
      "type": "node",
      "id": 492849637,
      "lat": 52.5076615,
      "lon": 13.454537,
      "tags": {
        "addr:city": "Berlin",
        "addr:country": "DE",
        "addr:housenumber": "99",
        "addr:postcode": "10245",
        "addr:street": "Revaler Straße",
        "addr:suburb": "Friedrichshain",
        "amenity": "nightclub",
        "contact:website": "http://www.raw-tempel.de/",
        "name": "RAW 99",
        "wheelchair": "limited"
      }
    },
    {
      "type": "node",
      "id": 621429565,
      "lat": 52.5091003,
      "lon": 13.4560428,
      "tags": {
        "addr:city": "Berlin",
        "addr:country": "DE",
        "addr:housenumber": "32",
        "addr:postcode": "10245",
        "addr:street": "Simon-Dach-Straße",
        "addr:suburb": "Friedrichshain",
        "amenity": "nightclub",
        "check_date:opening_hours": "2025-03-10",
        "name": "Berndhain",
        "opening_hours:signed": "no"
      }
    },
    {
      "type": "node",
      "id": 652884290,
      "lat": 52.5336193,
      "lon": 13.4007592,
      "tags": {
        "addr:city": "Berlin",
        "addr:country": "DE",
        "addr:housenumber": "21",
        "addr:postcode": "10119",
        "addr:street": "Veteranenstraße",
        "addr:suburb": "Mitte",
        "amenity": "nightclub",
        "contact:phone": "+49 30 83030144",
        "name": "Calabash"
      }
    },
    {
      "type": "node",
      "id": 667842214,
      "lat": 52.5110197,
      "lon": 13.4169088,
      "tags": {
        "addr:city": "Berlin",
        "addr:country": "DE",
        "addr:housenumber": "76",
        "addr:postcode": "10179",
        "addr:street": "Köpenicker Straße",
        "addr:suburb": "Mitte",
        "amenity": "nightclub",
        "contact:facebook": "https://www.facebook.com/RockatSageBerlin/",
        "contact:instagram": "https://www.instagram.com/rockatsage/",
        "name": "Sage",
        "note": "subsidiary of KitKat",
        "smoking": "no",
        "toilets:wheelchair": "yes",
        "website": "https://www.sage-club.de/",
        "wheelchair": "yes",
        "wikidata": "Q2211685",
        "wikipedia": "de:Sage Club"
      }
    },
    {
      "type": "node",
      "id": 670069373,
      "lat": 52.53567,
      "lon": 13.401179,
      "tags": {
        "addr:city": "Berlin",
        "addr:country": "DE",
        "addr:housenumber": "5",
        "addr:postcode": "10119",
        "addr:street": "Zionskirchstraße",
        "addr:suburb": "Mitte",
        "amenity": "nightclub",
        "check_date": "2023-06-04",
        "contact:phone": "+49 179 4261189",
        "contact:website": "http://www.neueberlinerinitiative.de",
        "name": "NBI Club",
        "opening_hours": "Mo-Su 20:00+",
        "wheelchair": "no"
      }
    },
    {
      "type": "node",
      "id": 729294555,
      "lat": 52.5112074,
      "lon": 13.4169157,
      "tags": {
        "addr:city": "Berlin",
        "addr:country": "DE",
        "addr:housenumber": "76",
        "addr:postcode": "10179",
        "addr:street": "Köpenicker Straße",
        "addr:suburb": "Mitte",
        "alt_name": "KitKat Club;KitKatClub",
        "amenity": "nightclub",
        "contact:instagram": "kitkatclub.official",
        "contact:phone": "+49 30 7871896",
        "contact:website": "http://www.kitkatclub.org",
        "kinky": "yes",
        "live_music": "yes",
        "name": "Kit Kat Club",
        "smoking": "yes",
        "toilets:wheelchair": "yes",
        "wheelchair": "limited",
        "wikidata": "Q322135",
        "wikimedia_commons": "Category:KitKatClub",
        "wikipedia": "de:KitKatClub"
      }
    },
    {
      "type": "node",
      "id": 736787851,
      "lat": 52.526786,
      "lon": 13.4107036,
      "tags": {
        "access": "customers",
        "addr:city": "Berlin",
        "addr:country": "DE",
        "addr:housenumber": "41",
        "addr:postcode": "10178",
        "addr:street": "Rosa-Luxemburg-Straße",
        "addr:suburb": "Mitte",
        "amenity": "nightclub",
        "entrance": "yes",
        "name": "1820",
        "opening_hours": "Mo-Su 19:00-00:00",
        "phone": "+493081453960",
        "smoking": "yes",
        "website": "https://www.belushis.com/bars/berlin",
        "wheelchair": "no"
      }
    },
    {
      "type": "node",
      "id": 739305494,
      "lat": 52.4655581,
      "lon": 13.3860876,
      "tags": {
        "addr:city": "Berlin",
        "addr:country": "DE",
        "addr:housenumber": "17",
        "addr:postcode": "12099",
        "addr:street": "Alt-Tempelhof",
        "addr:suburb": "Tempelhof",
        "amenity": "nightclub",
        "brothel:swingerclub": "events",
        "description": "Erotic Nightclub",
        "email": "dominique@insomnia-berlin.de",
        "fax": "+49 30 51654143",
        "kinky": "yes",
        "min_age": "18",
        "mobile": "+49 177 2333878",
        "name": "Insomnia",
        "opening_hours": "Tu 19:00-02:00, We 20:00-02:00, Th 14:00-24:00; Fr-Sa 22:00+, Su 19:00-02:00",
        "operator": "Insomnia GbR",
        "phone": "+49 30 51654143",
        "website": "https://www.insomnia-berlin.de/",
        "wikidata": "Q1285955",
        "wikipedia": "de:Insomnia (Club)"
      }
    },
    {
      "type": "node",
      "id": 821646254,
      "lat": 52.5156316,
      "lon": 13.452579,
      "tags": {
        "addr:city": "Berlin",
        "addr:country": "DE",
        "addr:postcode": "10243",
        "addr:street": "Karl-Marx-Allee",
        "addr:suburb": "Friedrichshain",
        "amenity": "nightclub",
        "check_date:opening_hours": "2023-11-29",
        "name": "Abgedreht Klub",
        "opening_hours:signed": "no"
      }
    },
    {
      "type": "node",
      "id": 898983650,
      "lat": 52.4972653,
      "lon": 13.2932442,
      "tags": {
        "addr:city": "Berlin",
        "addr:country": "DE",
        "addr:housenumber": "133/134",
        "addr:postcode": "10711",
        "addr:street": "Kurfürstendamm",
        "addr:suburb": "Halensee",
        "amenity": "nightclub",
        "contact:website": "http://night-lounge.net/",
        "name": "K133 Night Lounge",
        "wheelchair": "no"
      }
    },
    {
      "type": "node",
      "id": 910429971,
      "lat": 52.5320796,
      "lon": 13.380294,
      "tags": {
        "addr:city": "Berlin",
        "addr:country": "DE",
        "addr:housenumber": "102",
        "addr:postcode": "10115",
        "addr:street": "Chausseestraße",
        "addr:suburb": "Mitte",
        "amenity": "nightclub",
        "email": "info@ballhaus-berlin.de",
        "facebook": "https://www.facebook.com/ballhaus.berlin",
        "image": "https://media04.berliner-woche.de/event/2016/05/18/6/16526_XXL.png",
        "instagram": "https://www.instagram.com/ballhausberlin/",
        "name": "Ballhaus Berlin",
        "opening_hours": "Mo-Sa 15:00-04:00, Su 15:00-01:00",
        "operator": "Ballhaus Berlin GmbH",
        "phone": "+49 30 2827575",
        "start_date": "1905",
        "website": "https://www.ballhaus-berlin.de/",
        "wheelchair": "yes",
        "wikimedia_commons": "File:Ballhaus Berlin Chausseestraße.jpg"
      }
    },
    {
      "type": "node",
      "id": 918183904,
      "lat": 52.5161783,
      "lon": 13.3899473,
      "tags": {
        "addr:city": "Berlin",
        "addr:country": "DE",
        "addr:housenumber": "8",
        "addr:postcode": "10117",
        "addr:street": "Rosmarinstraße",
        "addr:suburb": "Mitte",
        "amenity": "nightclub",
        "contact:phone": "+49 30 544 69663",
        "name": "Club R8",
        "smoking": "no",
        "website": "http://www.clubr8.com/",
        "wheelchair": "limited"
      }
    },
    {
      "type": "node",
      "id": 959344243,
      "lat": 52.4794629,
      "lon": 13.4337837,
      "tags": {
        "addr:city": "Berlin",
        "addr:country": "DE",
        "addr:housenumber": "26",
        "addr:postcode": "12053",
        "addr:street": "Rollbergstraße",
        "addr:suburb": "Neukölln",
        "amenity": "nightclub",
        "check_date": "2025-07-03",
        "contact:email": "pr@schwuz.de",
        "contact:fax": "+49 30 5770 227-10",
        "contact:phone": "+49 30 5770 227-0",
        "contact:website": "http://www.schwuz.de",
        "image": "https://www.schwuz.de/wp-content/uploads/2022/03/2013-gruendung-schwuz-verwaltungs-gmbh-berlin.jpg",
        "lgbtq": "primary",
        "name": "SchwuZ",
        "operator": "SchwuZ Kulturveranstaltungs GmbH",
        "payment:cash": "yes",
        "payment:credit_cards": "yes",
        "payment:debit_cards": "yes",
        "payment:mastercard": "yes",
        "payment:visa": "yes",
        "smoking": "isolated",
        "toilets:wheelchair": "yes",
        "wheelchair": "yes",
        "wikidata": "Q834245",
        "wikimedia_commons": "Category:SchwuZ",
        "wikipedia": "de:SchwuZ"
      }
    },
    {
      "type": "node",
      "id": 959625062,
      "lat": 52.4852704,
      "lon": 13.3534485,
      "tags": {
        "addr:city": "Berlin",
        "addr:housenumber": "30",
        "addr:postcode": "10827",
        "addr:street": "Hauptstraße",
        "alt_name": "Havanna Club",
        "amenity": "nightclub",
        "contact:phone": "+49 30 78899655",
        "contact:website": "https://www.havanna-berlin.de/",
        "name": "Havanna",
        "opening_hours": "We 20:00+; Fr-Sa 22:00+",
        "start_date": "1997",
        "wheelchair": "yes"
      }
    },
    {
      "type": "node",
      "id": 975700421,
      "lat": 52.4864896,
      "lon": 13.4217418,
      "tags": {
        "addr:city": "Berlin",
        "addr:country": "DE",
        "addr:housenumber": "107-113",
        "addr:postcode": "10967",
        "addr:street": "Hasenheide",
        "addr:suburb": "Neukölln",
        "amenity": "nightclub",
        "contact:phone": "+49 30 78099810",
        "contact:website": "https://huxleysneuewelt.com/",
        "name": "Huxleys Neue Welt",
        "opening_hours": "\"Je nach Veranstaltung\"",
        "toilets:wheelchair": "yes",
        "wheelchair": "yes"
      }
    },
    {
      "type": "node",
      "id": 979969868,
      "lat": 52.5030121,
      "lon": 13.4081361,
      "tags": {
        "addr:city": "Berlin",
        "addr:country": "DE",
        "addr:housenumber": "26",
        "addr:postcode": "10969",
        "addr:street": "Ritterstraße",
        "addr:suburb": "Kreuzberg",
        "amenity": "nightclub",
        "check_date": "2025-08-26",
        "check_date:opening_hours": "2025-08-21",
        "check_date:smoking": "2025-07-01",
        "contact:email": "info@ritter-butzke.de",
        "contact:facebook": "https://facebook.com/ritterbutzkeberlin/events",
        "contact:fax": "+49 30 213007811",
        "contact:instagram": "https://www.instagram.com/ritterbutzke.berlin",
        "contact:ra": "https://ra.co/clubs/6950",
        "contact:website": "https://club.ritterbutzke.com",
        "image": "https://www.theclubmap.com/wp-content/uploads/2021/09/ritter-butzke-club-berlin-7.jpg",
        "name": "Ritter Butzke",
        "opening_hours": "\"siehe Website\"",
        "operator": "Ritter Butzke Production GmbH",
        "payment:cash": "yes",
        "payment:credit_cards": "yes",
        "payment:debit_cards": "yes",
        "short_name": "Butzke",
        "smoking": "no",
        "start_date": "2009-10",
        "toilets:wheelchair": "yes",
        "wheelchair": "yes",
        "wheelchair:description": "WC war gerade kaputt, ansonsten im EG alles ok erreichbar",
        "wikidata": "Q21036533",
        "wikipedia": "de:Ritter Butzke"
      }
    },
    {
      "type": "node",
      "id": 988192687,
      "lat": 52.4835867,
      "lon": 13.390553,
      "tags": {
        "amenity": "nightclub",
        "name": "Silverwings",
        "website": "https://silverwings.de/",
        "wheelchair": "no",
        "wheelchair:description": "Befindet sich im 1. Stock. Achtung: Ignoriert das Nichtraucherschutzgesetz."
      }
    },
    {
      "type": "node",
      "id": 1144034120,
      "lat": 52.5229379,
      "lon": 13.4034635,
      "tags": {
        "addr:city": "Berlin",
        "addr:country": "DE",
        "addr:housenumber": "2",
        "addr:postcode": "10178",
        "addr:street": "Am Zwirngraben",
        "addr:suburb": "Mitte",
        "amenity": "nightclub",
        "check_date": "2025-06-30",
        "check_date:smoking": "2025-06-30",
        "contact:facebook": "amtopmberlin",
        "contact:phone": "+49 30 24085301",
        "email": "Cloudamtopm@gmail.com",
        "internet_access": "wlan",
        "name": "AM to PM",
        "opening_hours": "zurzeit geschlossen",
        "smoking": "no",
        "toilets:wheelchair": "no",
        "url": "https://am-to-pm.metro.bar/",
        "wheelchair": "no"
      }
    },
    {
      "type": "node",
      "id": 1145853246,
      "lat": 52.5217615,
      "lon": 13.4075481,
      "tags": {
        "addr:city": "Berlin",
        "addr:country": "DE",
        "addr:housenumber": "11",
        "addr:postcode": "10178",
        "addr:street": "Karl-Liebknecht-Straße",
        "addr:suburb": "Mitte",
        "amenity": "nightclub",
        "contact:phone": "+49302828593",
        "music_genre": "schlager",
        "name": "Hafenbar",
        "name:ja": "ハーフェンバー",
        "opening_hours": "Fr-Sa 21:00-05:00",
        "website": "https://www.hafenbar-berlin.de/",
        "wheelchair": "no"
      }
    },
    {
      "type": "node",
      "id": 1162812586,
      "lat": 52.5229029,
      "lon": 13.4164231,
      "tags": {
        "addr:city": "Berlin",
        "addr:country": "DE",
        "addr:housenumber": "7",
        "addr:postcode": "10178",
        "addr:street": "Alexanderstraße",
        "addr:suburb": "Mitte",
        "amenity": "nightclub",
        "check_date": "2025-06-30",
        "check_date:smoking": "2025-06-30",
        "contact:phone": "+49 30 24631676",
        "contact:website": "http://www.week-end-berlin.de/",
        "name": "Weekend Club",
        "name:ja": "ウィークエンド・クラブ",
        "opening_hours": "Fr,Tu 22:00-06:00, Sa 19:00-06:00",
        "smoking": "no",
        "wheelchair": "limited"
      }
    },
    {
      "type": "node",
      "id": 1165008486,
      "lat": 52.5395232,
      "lon": 13.4142448,
      "tags": {
        "addr:city": "Berlin",
        "addr:country": "DE",
        "addr:housenumber": "97",
        "addr:postcode": "10435",
        "addr:street": "Knaackstraße",
        "addr:suburb": "Prenzlauer Berg",
        "amenity": "nightclub",
        "check_date": "2023-11-10",
        "internet_access": "no",
        "level": "1",
        "name": "Soda Club",
        "opening_hours": "Th,So 19:00-02:00; Fr-Sa 22:00-06:00",
        "payment:cash": "yes",
        "payment:credit_cards": "yes",
        "payment:debit_cards": "yes",
        "payment:free": "yes",
        "website": "https://www.soda-berlin.de/",
        "wheelchair": "limited"
      }
    },
    {
      "type": "node",
      "id": 1228317932,
      "lat": 52.5114893,
      "lon": 13.3084909,
      "tags": {
        "addr:city": "Berlin",
        "addr:country": "DE",
        "addr:housenumber": "90",
        "addr:postcode": "10627",
        "addr:street": "Bismarckstraße",
        "addr:suburb": "Charlottenburg",
        "amenity": "nightclub",
        "check_date": "2024-03-03",
        "contact:phone": "+49 172 3858879",
        "contact:website": "https://www.tabuclub.de/",
        "level": "0",
        "name": "Tabu",
        "wheelchair": "limited"
      }
    },
    {
      "type": "node",
      "id": 1310466406,
      "lat": 52.5121321,
      "lon": 13.3932376,
      "tags": {
        "addr:city": "Berlin",
        "addr:housenumber": "30",
        "addr:postcode": "10117",
        "addr:street": "Anton-Wilhelm-Amo-Straße",
        "amenity": "nightclub",
        "name": "BRICKS Club",
        "operator": "BRICKS Gastronomie GmbH",
        "smoking": "no",
        "website": "https://bricks-berlin.club",
        "wheelchair": "yes"
      }
    },
    {
      "type": "node",
      "id": 1361259244,
      "lat": 52.503615,
      "lon": 13.448261,
      "tags": {
        "addr:city": "Berlin",
        "addr:country": "DE",
        "addr:housenumber": "18",
        "addr:postcode": "10245",
        "addr:street": "Warschauer Platz",
        "addr:suburb": "Friedrichshain",
        "amenity": "nightclub",
        "check_date": "2023-11-03",
        "contact:facebook": "https://www.facebook.com/diebuscheberlin",
        "contact:instagram": "https://www.instagram.com/discothek_die_busche/",
        "contact:phone": "+49 30 2960800",
        "contact:website": "http://www.diebusche.de",
        "email": "mail@diebusche.de",
        "lgbtq": "primary",
        "name": "Die Busche",
        "opening_hours": "We 23:00-05:00,Fr 22:00-07:00,Sa 22:00-07:00",
        "phone": "+49 30 2960800",
        "toilets:wheelchair": "yes",
        "wheelchair": "limited"
      }
    },
    {
      "type": "node",
      "id": 1370001597,
      "lat": 52.5032996,
      "lon": 13.4087274,
      "tags": {
        "addr:city": "Berlin",
        "addr:housenumber": "85f",
        "addr:postcode": "10969",
        "addr:street": "Prinzenstraße",
        "amenity": "nightclub",
        "contact:email": "info@princecharlesberlin.com",
        "contact:website": "https://www.princecharlesberlin.com/",
        "image": "https://groove.de/wp-content/uploads/2019/05/prince-charles-final.jpg",
        "name": "Prince Charles",
        "smoking": "yes",
        "wheelchair": "yes"
      }
    },
    {
      "type": "node",
      "id": 1402543376,
      "lat": 52.5040556,
      "lon": 13.3379413,
      "tags": {
        "addr:city": "Berlin",
        "addr:country": "DE",
        "addr:housename": "Europa-Center",
        "addr:housenumber": "9-12",
        "addr:postcode": "10789",
        "addr:street": "Tauentzienstraße",
        "addr:suburb": "Charlottenburg",
        "amenity": "nightclub",
        "contact:website": "http://www.puroberlin.de/",
        "level": "20",
        "name": "Puro Sky Lounge Berlin"
      }
    },
    {
      "type": "node",
      "id": 1450635676,
      "lat": 52.5271131,
      "lon": 13.4116224,
      "tags": {
        "addr:city": "Berlin",
        "addr:country": "DE",
        "addr:housenumber": "1",
        "addr:postcode": "10178",
        "addr:street": "Rosa-Luxemburg-Platz",
        "addr:suburb": "Mitte",
        "amenity": "nightclub",
        "check_date": "2024-06-10",
        "name": "Roter Salon",
        "opening_hours": "Mo-Sa 11:00-18:00",
        "operator": "Volksbühne am Rosa-Luxemburg-Platz",
        "wheelchair": "no"
      }
    },
    {
      "type": "node",
      "id": 1667559178,
      "lat": 52.5007558,
      "lon": 13.4414613,
      "tags": {
        "amenity": "nightclub",
        "leisure": "music_venue",
        "name": "Bi Nuu",
        "toilets:wheelchair": "yes",
        "website": "http://www.bi-nuu.de/",
        "wheelchair": "yes"
      }
    },
    {
      "type": "node",
      "id": 1820069776,
      "lat": 52.5235538,
      "lon": 13.4069893,
      "tags": {
        "addr:city": "Berlin",
        "addr:country": "DE",
        "addr:housenumber": "40",
        "addr:postcode": "10178",
        "addr:street": "Dircksenstraße",
        "addr:suburb": "Mitte",
        "amenity": "nightclub",
        "contact:email": "mail@b-flat-berlin.de",
        "contact:phone": "+49 30 2833123",
        "contact:website": "http://b-flat-berlin.de/",
        "level": "-1",
        "live_music": "yes",
        "name": "b-flat",
        "opening_hours": "Mo-Su 20:00-01:00",
        "outdoor_seating": "no",
        "payment:cash": "yes",
        "payment:credit_cards": "no",
        "payment:debit_cards": "no",
        "smoking": "no",
        "wheelchair": "no"
      }
    },
    {
      "type": "node",
      "id": 1882869375,
      "lat": 52.4990172,
      "lon": 13.3424928,
      "tags": {
        "addr:city": "Berlin",
        "addr:country": "DE",
        "addr:housenumber": "33",
        "addr:postcode": "10777",
        "addr:street": "Fuggerstraße",
        "addr:suburb": "Schöneberg",
        "amenity": "nightclub",
        "contact:email": "info@connection-berlin.de",
        "contact:fax": "+49 30 2177686",
        "contact:phone": "+49 30 2181432",
        "contact:website": "http://www.connection-berlin.de",
        "cruising": "yes",
        "lgbtq": "primary",
        "lgbtq:cruising": "yes",
        "lgbtq:men": "only",
        "name": "Connection",
        "opening_hours": "Mo-Th 10:00-01:00, Fr-Sa 10:00-05:00, Su 14:00-01:00",
        "operator": "Michael Sonntag, Michael Klatt",
        "wheelchair": "limited"
      }
    },
    {
      "type": "node",
      "id": 1897123562,
      "lat": 52.5029678,
      "lon": 13.4411582,
      "tags": {
        "addr:housenumber": "5",
        "addr:street": "Pfuelstraße",
        "amenity": "nightclub",
        "contact:facebook": "fluxbau",
        "contact:instagram": "FluxBau",
        "email": "fluxbau@fluxfm.de",
        "name": "FluxBau",
        "phone": "+4917643562611",
        "toilets:wheelchair": "no",
        "website": "https://www.fluxfm.de/fluxbau/",
        "wheelchair": "no"
      }
    },
    {
      "type": "node",
      "id": 1934211315,
      "lat": 52.504062,
      "lon": 13.3224146,
      "tags": {
        "addr:city": "Berlin",
        "addr:country": "DE",
        "addr:housenumber": "77",
        "addr:postcode": "10623",
        "addr:street": "Knesebeckstraße",
        "addr:suburb": "Charlottenburg",
        "amenity": "nightclub",
        "name": "Vagabund Club",
        "opening_hours": "00:00+",
        "opening_hours:signed": "no",
        "website": "https://www.vagabund-berlin.com/",
        "wheelchair": "limited"
      }
    },
    {
      "type": "node",
      "id": 1941952571,
      "lat": 52.4993312,
      "lon": 13.4242521,
      "tags": {
        "addr:city": "Berlin",
        "addr:country": "DE",
        "addr:housenumber": "114",
        "addr:postcode": "10999",
        "addr:street": "Skalitzer Straße",
        "addr:suburb": "Kreuzberg",
        "amenity": "nightclub",
        "contact:email": "mail@bulbulberlin.de",
        "contact:facebook": "https://www.facebook.com/BulbulBerlin/",
        "contact:phone": "+49 30 53091711",
        "name": "Bulbul Berlin",
        "website": "https://www.bulbulberlin.de/"
      }
    },
    {
      "type": "node",
      "id": 1954332576,
      "lat": 52.5344022,
      "lon": 13.3597082,
      "tags": {
        "addr:city": "Berlin",
        "addr:country": "DE",
        "addr:housenumber": "35",
        "addr:postcode": "10557",
        "addr:street": "Lehrter Straße",
        "addr:suburb": "Moabit",
        "amenity": "nightclub",
        "contact:phone": "+49 30 3975056",
        "email": "info@slaughterhouse-berlin.de",
        "name": "Slaughterhouse",
        "toilets:wheelchair": "yes",
        "website": "https://www.slaughterhouse-berlin.de/",
        "wheelchair": "limited"
      }
    },
    {
      "type": "node",
      "id": 2126202628,
      "lat": 52.551145,
      "lon": 13.3672515,
      "tags": {
        "addr:city": "Berlin",
        "addr:country": "DE",
        "addr:housenumber": "74",
        "addr:postcode": "13347",
        "addr:street": "Reinickendorfer Straße",
        "addr:suburb": "Wedding",
        "amenity": "nightclub",
        "check_date:opening_hours": "2023-11-17",
        "contact:phone": "+49 157 79 13 79 14",
        "name": "Orchidea",
        "opening_hours:signed": "no",
        "wheelchair": "no",
        "wheelchair:description": "eine Rollstuhlrampe wird auf Anfrage ausgelegt"
      }
    },
    {
      "type": "node",
      "id": 2147941967,
      "lat": 52.5000715,
      "lon": 13.4348491,
      "tags": {
        "addr:city": "Berlin",
        "addr:country": "DE",
        "addr:housenumber": "85-86",
        "addr:postcode": "10997",
        "addr:street": "Skalitzer Straße",
        "addr:suburb": "Kreuzberg",
        "amenity": "nightclub",
        "contact:facebook": "https://www.facebook.com/privatclub",
        "contact:instagram": "https://www.instagram.com/privatclub_berlin/",
        "contact:website": "http://www.privatclub-berlin.de",
        "email": "info@privatclub-berlin.de",
        "leisure": "music_venue",
        "name": "Privatclub",
        "opening_hours:office": "Mo-Fr 11:00-16:00",
        "opening_hours:signed": "no",
        "operator": "Milchmädchen Musikkultur GmbH",
        "phone": "+49 30 35522598",
        "toilets:wheelchair": "yes",
        "wheelchair": "yes",
        "wheelchair:description": "Es gibt zwar eine rollstuhlgerechte Toilette, aber auch Treppen am Eingang. Man kann wohl hinten rum über einen Lastenaufzug...",
        "wikidata": "Q105762300"
      }
    },
    {
      "type": "node",
      "id": 2147953685,
      "lat": 52.5029659,
      "lon": 13.4474984,
      "tags": {
        "amenity": "nightclub",
        "name": "Metrom Lounge"
      }
    },
    {
      "type": "node",
      "id": 2188253833,
      "lat": 52.5008789,
      "lon": 13.3311044,
      "tags": {
        "addr:city": "Berlin",
        "addr:housenumber": "25",
        "addr:postcode": "10719",
        "addr:street": "Joachimsthaler Straße",
        "amenity": "nightclub",
        "name": "The Door",
        "unused:amenity": "nightclub",
        "website": "https://thedoor.club/",
        "wheelchair": "limited"
      }
    },
    {
      "type": "node",
      "id": 2347398754,
      "lat": 52.5019061,
      "lon": 13.3308361,
      "tags": {
        "addr:city": "Berlin",
        "addr:country": "DE",
        "addr:housenumber": "15",
        "addr:postcode": "10719",
        "addr:street": "Joachimsthaler Straße",
        "addr:suburb": "Charlottenburg",
        "amenity": "nightclub",
        "contact:whatsapp": "0176 32289595",
        "email": "kontakt@maxxim-berlin.de",
        "name": "Maxxim Club",
        "opening_hours": "22:30+; Tu 19:00+",
        "phone": "+49 30 41766240",
        "website": "https://www.maxxim-berlin.de/",
        "wheelchair": "no"
      }
    },
    {
      "type": "node",
      "id": 2381034158,
      "lat": 52.4961326,
      "lon": 13.4351165,
      "tags": {
        "amenity": "nightclub",
        "check_date": "2025-05-03",
        "name": "Reset",
        "opening_hours": "\"abhängig von Veranstaltungen\"",
        "toilets:wheelchair": "no",
        "wheelchair": "no"
      }
    },
    {
      "type": "node",
      "id": 2435092394,
      "lat": 52.4643506,
      "lon": 13.4333842,
      "tags": {
        "addr:city": "Berlin",
        "addr:country": "DE",
        "addr:housenumber": "146",
        "addr:postcode": "12051",
        "addr:street": "Hermannstraße",
        "addr:suburb": "Neukölln",
        "alt_name": "Hole Berlin",
        "alt_name_1": "Hole 44",
        "amenity": "nightclub",
        "contact:instagram": "holeberlin",
        "level": "0",
        "live_music": "yes",
        "name": "Hole⁴⁴",
        "opening_hours": "\"zu Veranstaltungen\"",
        "website": "https://hole-berlin.de/",
        "wheelchair": "yes",
        "wikidata": "Q130601665"
      }
    },
    {
      "type": "node",
      "id": 2665268971,
      "lat": 52.502437,
      "lon": 13.4311437,
      "tags": {
        "amenity": "nightclub",
        "contact:facebook": "https://www.facebook.com/auster.berlin/",
        "name": "Auster-Club",
        "opening_hours": "Mo-Su 12:00-18:00+",
        "smoking": "isolated",
        "wheelchair": "no"
      }
    },
    {
      "type": "node",
      "id": 2876098523,
      "lat": 52.5105954,
      "lon": 13.4197888,
      "tags": {
        "addr:city": "Berlin",
        "addr:country": "DE",
        "addr:housenumber": "70",
        "addr:postcode": "10179",
        "addr:street": "Köpenicker Straße",
        "addr:suburb": "Mitte",
        "amenity": "nightclub",
        "contact:facebook": "https://www.facebook.com/shiftberlin",
        "contact:instagram": "https://www.instagram.com/ohmberlin/",
        "name": "Ohm",
        "smoking": "no",
        "website": "http://www.ohmberlin.com/"
      }
    },
    {
      "type": "node",
      "id": 2968181705,
      "lat": 52.5126865,
      "lon": 13.4247322,
      "tags": {
        "addr:city": "Berlin",
        "addr:country": "DE",
        "addr:housenumber": "25",
        "addr:postcode": "10243",
        "addr:street": "Holzmarktstraße",
        "addr:suburb": "Friedrichshain",
        "amenity": "nightclub",
        "entrance": "main",
        "name": "Nachtclub"
      }
    },
    {
      "type": "node",
      "id": 3121055734,
      "lat": 52.5261173,
      "lon": 13.393681,
      "tags": {
        "addr:city": "Berlin",
        "addr:country": "DE",
        "addr:housenumber": "32",
        "addr:postcode": "10117",
        "addr:street": "Tucholskystraße",
        "addr:suburb": "Mitte",
        "amenity": "nightclub",
        "name": "Flow Bar",
        "opening_hours": "Su,Mo,Tu off, We,Th 21:00-05:00, Fr,Sa 21:00-06:00",
        "smoking": "no",
        "toilets:wheelchair": "no",
        "wheelchair": "no"
      }
    },
    {
      "type": "node",
      "id": 3298592393,
      "lat": 52.5112236,
      "lon": 13.3961493,
      "tags": {
        "amenity": "nightclub",
        "name": "Konzulát",
        "opening_hours:signed": "no",
        "smoking": "no"
      }
    },
    {
      "type": "node",
      "id": 3469247893,
      "lat": 52.5395329,
      "lon": 13.4136676,
      "tags": {
        "addr:city": "Berlin",
        "addr:country": "DE",
        "addr:housenumber": "97",
        "addr:postcode": "10435",
        "addr:street": "Knaackstraße",
        "addr:suburb": "Prenzlauer Berg",
        "amenity": "nightclub",
        "contact:phone": "+49 30 44341952",
        "mapillary": "458394502129423",
        "name": "Alte Kantine",
        "opening_hours": "Mo 22:00-06:00; Th 22:00-05:00; Fr 19:00-06:00; Sa 20:00-06:30",
        "smoking": "isolated",
        "toilets:wheelchair": "yes",
        "website": "https://alte-kantine.eu",
        "wheelchair": "limited"
      }
    },
    {
      "type": "node",
      "id": 3610779779,
      "lat": 52.5075429,
      "lon": 13.4758087,
      "tags": {
        "addr:city": "Berlin",
        "addr:country": "DE",
        "addr:housenumber": "5",
        "addr:postcode": "10365",
        "addr:street": "Wiesenweg",
        "addr:suburb": "Lichtenberg",
        "amenity": "nightclub",
        "contact:website": "http://www.void-club.de/",
        "name": "Void"
      }
    },
    {
      "type": "node",
      "id": 3777579770,
      "lat": 52.4260543,
      "lon": 13.4833923,
      "tags": {
        "amenity": "nightclub",
        "check_date": "2023-07-23",
        "name": "Top Disco Berlin",
        "opening_hours": "Fr,Sa 22:00+",
        "phone": "+49 30 720 15 430",
        "toilets:wheelchair": "yes",
        "website": "http://topdisco-berlin.de/home/",
        "wheelchair": "yes"
      }
    },
    {
      "type": "node",
      "id": 3783242657,
      "lat": 52.5226319,
      "lon": 13.4092273,
      "tags": {
        "addr:city": "Berlin",
        "addr:country": "DE",
        "addr:housenumber": "123-124",
        "addr:postcode": "10178",
        "addr:street": "Dircksenstraße",
        "addr:suburb": "Mitte",
        "amenity": "nightclub",
        "name": "M-BIA",
        "opening_hours": "We 23:00-07:00; Fr-Sa 23:00-09:00",
        "smoking": "no"
      }
    },
    {
      "type": "node",
      "id": 3783290025,
      "lat": 52.5335177,
      "lon": 13.4008094,
      "tags": {
        "addr:city": "Berlin",
        "addr:country": "DE",
        "addr:housenumber": "21",
        "addr:postcode": "10119",
        "addr:street": "Veteranenstraße",
        "addr:suburb": "Mitte",
        "amenity": "nightclub",
        "name": "ACUD",
        "wheelchair": "limited"
      }
    },
    {
      "type": "node",
      "id": 3783296627,
      "lat": 52.5075016,
      "lon": 13.3718571,
      "tags": {
        "addr:city": "Berlin",
        "addr:housenumber": "1",
        "addr:postcode": "10785",
        "addr:street": "Marlene-Dietrich-Platz",
        "amenity": "nightclub",
        "name": "Adagio",
        "wheelchair": "yes"
      }
    },
    {
      "type": "node",
      "id": 3783307323,
      "lat": 52.5975687,
      "lon": 13.3526876,
      "tags": {
        "addr:city": "Berlin",
        "addr:housenumber": "142c",
        "addr:postcode": "13439",
        "addr:street": "Wilhelmsruher Damm",
        "addr:suburb": "Märkisches Viertel",
        "amenity": "nightclub",
        "name": "American Western Saloon",
        "toilets:wheelchair": "yes",
        "wheelchair": "limited"
      }
    },
    {
      "type": "node",
      "id": 3826455881,
      "lat": 52.4987104,
      "lon": 13.3479726,
      "tags": {
        "addr:city": "Berlin",
        "addr:country": "DE",
        "addr:housenumber": "7",
        "addr:postcode": "10777",
        "addr:street": "Kalckreuthstraße",
        "addr:suburb": "Schöneberg",
        "amenity": "nightclub",
        "check_date:opening_hours": "2024-02-19",
        "min_age": "18",
        "name": "Pussy Cat",
        "opening_hours": "Mo-Su 18:00-06:00",
        "phone": "+49 30 2133586",
        "smoking": "yes",
        "website": "http://www.pussycat-berlin.de",
        "wheelchair": "no"
      }
    },
    {
      "type": "node",
      "id": 3830239588,
      "lat": 52.5044307,
      "lon": 13.3534385,
      "tags": {
        "addr:city": "Berlin",
        "addr:housenumber": "9",
        "addr:postcode": "10785",
        "addr:street": "Lützowplatz",
        "amenity": "nightclub",
        "name": "Trompete",
        "website": "https://trompete-berlin.de/",
        "wheelchair": "no"
      }
    },
    {
      "type": "node",
      "id": 4034138645,
      "lat": 52.5003909,
      "lon": 13.4221612,
      "tags": {
        "addr:city": "Berlin",
        "addr:country": "DE",
        "addr:floor": "0",
        "addr:housename": "SO36",
        "addr:housenumber": "190",
        "addr:postcode": "10999",
        "addr:street": "Oranienstraße",
        "addr:suburb": "Kreuzberg",
        "air_conditioning": "yes",
        "amenity": "nightclub",
        "check_date": "2024-09-01",
        "contact:email": "post@so36.de",
        "contact:facebook": "https://www.facebook.com/pages/_/171604075171",
        "contact:instagram": "so36_club",
        "contact:phone": "+49 30 61401306",
        "contact:qype": "https://www.qype.com/place/3091",
        "contact:website": "https://www.so36.de",
        "contact:yelp": "https://www.yelp.com/biz/so36-berlin",
        "description": "concert collective;concert venue;events",
        "identity": "solidarity_economy",
        "level": "0",
        "live_music": "yes",
        "name": "SO36",
        "opening_hours": "\"Je nach Programm\"",
        "payment:cash": "yes",
        "payment:credit_cards": "yes",
        "payment:debit_cards": "yes",
        "payment:mastercard": "yes",
        "payment:visa": "yes",
        "provides": "culture;spaces",
        "smoking": "isolated",
        "source": "Solikon 2015;survey",
        "toilets:wheelchair": "yes",
        "wheelchair": "yes",
        "wheelchair:description": "Rampe am Eingang wird auf Nachfrage hingelegt;Drinnen: Rollstuh auf ein Podest heben zum Konzert schauen",
        "wikidata": "Q561850",
        "wikimedia_commons": "Category:SO36",
        "wikipedia": "de:SO36"
      }
    },
    {
      "type": "node",
      "id": 4118217590,
      "lat": 52.4613006,
      "lon": 13.4442907,
      "tags": {
        "addr:city": "Berlin",
        "addr:housenumber": "14",
        "addr:postcode": "12347",
        "addr:street": "Jahnstraße",
        "amenity": "nightclub",
        "name": "Stella Berlin",
        "opening_hours": "Mo-Fr 09:00-21:00; Sa-Su 11:00-20:00",
        "phone": "+49 30 61740855",
        "website": "https://stella-berlin.de/"
      }
    },
    {
      "type": "node",
      "id": 4172803384,
      "lat": 52.5312243,
      "lon": 13.4115684,
      "tags": {
        "addr:city": "Berlin",
        "addr:country": "DE",
        "addr:housenumber": "177 B",
        "addr:postcode": "10119",
        "addr:street": "Schönhauser Allee",
        "addr:suburb": "Prenzlauer Berg",
        "amenity": "nightclub",
        "bar": "yes",
        "check_date": "2025-09-28",
        "check_date:opening_hours": "2025-09-28",
        "email": "info@8mmbar.de",
        "facebook": "https://www.facebook.com/8millimeterbar/",
        "instagram": "https://www.instagram.com/8mmbar/",
        "name": "8MM",
        "opening_hours": "Mo-Su 19:00-04:00",
        "operator": "8MM Bar Veranstaltungs GmbH",
        "smoking": "yes",
        "website": "https://www.8mmbar.de/"
      }
    },
    {
      "type": "node",
      "id": 4217156190,
      "lat": 52.5174812,
      "lon": 13.419024,
      "tags": {
        "addr:city": "Berlin",
        "addr:country": "DE",
        "addr:housenumber": "31",
        "addr:postcode": "10179",
        "addr:street": "Schillingstraße",
        "addr:suburb": "Mitte",
        "amenity": "nightclub",
        "contact:email": "info@beate-uwe.de",
        "contact:facebook": "https://www.facebook.com/beateuweberlin/events",
        "contact:instagram": "https://www.instagram.com/beateuwe_official",
        "contact:ra": "https://ra.co/clubs/98993",
        "contact:website": "https://beate-uwe.de",
        "min_age": "18",
        "name": "Beate Uwe",
        "operator": "Javid und Ücel GbR",
        "smoking": "no",
        "start_date": "2014-12",
        "toilets:wheelchair": "no",
        "wheelchair": "yes"
      }
    },
    {
      "type": "node",
      "id": 4236204189,
      "lat": 52.5172277,
      "lon": 13.305791,
      "tags": {
        "addr:housenumber": "5",
        "addr:place": "Richard-Wagner-Platz",
        "addr:postcode": "10585",
        "amenity": "nightclub",
        "email": "info@misalsa.de",
        "name": "MiSalsa",
        "opening_hours": "Fr-Sa 22:00-05:00",
        "operator": "Humberto Castillo",
        "phone": "+493034540769",
        "website": "https://misalsa.de",
        "wheelchair": "no"
      }
    },
    {
      "type": "node",
      "id": 4283150545,
      "lat": 52.4966876,
      "lon": 13.4204665,
      "tags": {
        "addr:city": "Berlin",
        "addr:housenumber": "27",
        "addr:postcode": "10999",
        "addr:street": "Mariannenstraße",
        "amenity": "nightclub",
        "name": "Cake Club"
      }
    },
    {
      "type": "node",
      "id": 4458466133,
      "lat": 52.564751,
      "lon": 13.5048839,
      "tags": {
        "addr:city": "Berlin",
        "addr:housenumber": "12",
        "addr:postcode": "13051",
        "addr:street": "Prerower Platz",
        "amenity": "nightclub",
        "name": "KISS Lounge"
      }
    },
    {
      "type": "node",
      "id": 4574958092,
      "lat": 52.5046309,
      "lon": 13.327462,
      "tags": {
        "amenity": "nightclub",
        "name": "Vitrin",
        "wheelchair": "yes"
      }
    },
    {
      "type": "node",
      "id": 4784529624,
      "lat": 52.5267961,
      "lon": 13.3908678,
      "tags": {
        "addr:housenumber": "144",
        "addr:postcode": "10115",
        "addr:street": "Linienstraße",
        "amenity": "nightclub",
        "name": "Geheimclub (Annika von Trier)",
        "smoking": "no",
        "website": "https://annika-von-trier.com/geheimclub/"
      }
    },
    {
      "type": "node",
      "id": 4815124323,
      "lat": 52.4951405,
      "lon": 13.4625984,
      "tags": {
        "addr:city": "Berlin",
        "addr:country": "DE",
        "addr:housenumber": "10",
        "addr:postcode": "12435",
        "addr:street": "An den Treptowers",
        "addr:suburb": "Alt-Treptow",
        "amenity": "nightclub",
        "check_date": "2023-05-23",
        "contact:website": "http://else.tv/",
        "name": "Else",
        "opening_hours": "Tu-Sa 16:00+",
        "wheelchair": "no"
      }
    },
    {
      "type": "node",
      "id": 4870128450,
      "lat": 52.5106807,
      "lon": 13.419484,
      "tags": {
        "addr:city": "Berlin",
        "addr:country": "DE",
        "addr:housenumber": "70",
        "addr:postcode": "10179",
        "addr:street": "Köpenicker Straße",
        "addr:suburb": "Mitte",
        "amenity": "nightclub",
        "contact:facebook": "http://www.facebook.com/tresorberlin",
        "contact:instagram": "https://www.instagram.com/tresorberlin",
        "contact:phone": "+49 30 6953770",
        "contact:ra": "https://ra.co/clubs/5494",
        "contact:website": "https://tresorberlin.com",
        "live_music": "yes",
        "name": "Tresor Berlin",
        "operator": "Tresor Berlin GmbH",
        "smoking": "no",
        "start_date": "2007",
        "toilets:wheelchair": "yes",
        "wheelchair": "yes",
        "wikidata": "Q678186",
        "wikipedia": "de:Tresor (Club)"
      }
    },
    {
      "type": "node",
      "id": 4894544353,
      "lat": 52.4322129,
      "lon": 13.4615989,
      "tags": {
        "addr:city": "Berlin",
        "addr:country": "DE",
        "addr:housenumber": "261",
        "addr:postcode": "12351",
        "addr:street": "Johannisthaler Chaussee",
        "addr:suburb": "Buckow",
        "amenity": "nightclub",
        "contact:website": "http://blackwhite-danceclub.de/",
        "facebook": "https://www.facebook.com/people/BLACK-WHITE-DANCE-CLUB/100049051157624/",
        "fixme": "Website ist down, die Betreibergesellschaft insolvent, existiert der Club noch?",
        "name": "BlackWhite Danceclub",
        "opening_hours": "Fr 22:00+, Sa 21:00+",
        "wheelchair": "no"
      }
    },
    {
      "type": "node",
      "id": 5155961321,
      "lat": 52.5075831,
      "lon": 13.4545322,
      "tags": {
        "addr:postcode": "10245",
        "amenity": "nightclub",
        "contact:facebook": "DerWeisseHaseBerlin",
        "name": "Der Weiße Hase",
        "name:en": "The White Rabbit",
        "name:es": "Conejo Blanco",
        "phone": "+49 174 1976833"
      }
    },
    {
      "type": "node",
      "id": 5244438075,
      "lat": 52.4764177,
      "lon": 13.4598687,
      "tags": {
        "addr:city": "Berlin",
        "addr:housenumber": "11",
        "addr:postcode": "12057",
        "addr:street": "Ziegrastraße",
        "amenity": "nightclub",
        "name": "Internet Explorer"
      }
    },
    {
      "type": "node",
      "id": 5247942730,
      "lat": 52.5119933,
      "lon": 13.4260899,
      "tags": {
        "amenity": "nightclub",
        "entrance": "main",
        "name": "Kater Blau"
      }
    },
    {
      "type": "node",
      "id": 5838965221,
      "lat": 52.4806929,
      "lon": 13.4330336,
      "tags": {
        "addr:city": "Berlin",
        "addr:country": "DE",
        "addr:housenumber": "60",
        "addr:postcode": "12053",
        "addr:street": "Boddinstraße",
        "addr:suburb": "Neukölln",
        "amenity": "nightclub",
        "contact:instagram": "loophole_brln",
        "contact:website": "https://loophole.berlin/",
        "name": "Loophole",
        "wheelchair": "no"
      }
    },
    {
      "type": "node",
      "id": 5873234785,
      "lat": 52.5074123,
      "lon": 13.4556606,
      "tags": {
        "addr:city": "Berlin",
        "addr:country": "DE",
        "addr:housenumber": "99",
        "addr:postcode": "10245",
        "addr:street": "Revaler Straße",
        "addr:suburb": "Friedrichshain",
        "amenity": "nightclub",
        "delivery": "no",
        "name": "Tabula Rasa",
        "old_name": "Khwan",
        "outdoor_seating": "yes",
        "payment:cash": "only",
        "smoking": "outside",
        "takeaway": "no"
      }
    },
    {
      "type": "node",
      "id": 5906879511,
      "lat": 52.5024767,
      "lon": 13.466302,
      "tags": {
        "addr:city": "Berlin",
        "addr:country": "DE",
        "addr:housenumber": "24c",
        "addr:postcode": "10245",
        "addr:street": "Markgrafendamm",
        "addr:suburb": "Friedrichshain",
        "amenity": "nightclub",
        "check_date": "2024-09-08",
        "contact:email": "info@aboutblank.li;lost@aboutblank.li",
        "contact:facebook": "https://www.facebook.com/about.party/events",
        "contact:instagram": "https://www.instagram.com/about.blank.berlin",
        "contact:phone": "+49 30 69536290",
        "contact:ra": "https://ra.co/clubs/28354",
        "contact:website": "https://aboutblank.li",
        "description": "ATM inside",
        "internet_access": "no",
        "name": "://about blank",
        "opening_hours": "\"je nach Veranstaltung\"",
        "operator": "about blank eG",
        "payment:cards": "no",
        "payment:cash": "yes",
        "payment:credit_cards": "no",
        "payment:debit_cards": "no",
        "smoking": "yes",
        "start_date": "2010",
        "toilets:wheelchair": "yes",
        "wheelchair": "no",
        "wikidata": "Q23906461",
        "wikipedia": "de:About Blank"
      }
    },
    {
      "type": "node",
      "id": 6032392904,
      "lat": 52.5063423,
      "lon": 13.3099366,
      "tags": {
        "amenity": "nightclub",
        "karaoke": "yes",
        "name": "KTV Bar"
      }
    },
    {
      "type": "node",
      "id": 6192377288,
      "lat": 52.5029373,
      "lon": 13.4473091,
      "tags": {
        "addr:city": "Berlin",
        "addr:country": "DE",
        "addr:housenumber": "18",
        "addr:postcode": "10245",
        "addr:street": "Warschauer Platz",
        "addr:suburb": "Friedrichshain",
        "amenity": "nightclub",
        "check_date": "2025-09-13",
        "contact:email": "info@club-ava-berlin.de",
        "contact:facebook": "https://www.facebook.com/ElektroAva/",
        "contact:website": "http://www.club-ava-berlin.de/",
        "name": "Ava Club"
      }
    },
    {
      "type": "node",
      "id": 6252070333,
      "lat": 52.4989003,
      "lon": 13.3230448,
      "tags": {
        "addr:city": "Berlin",
        "addr:housenumber": "83",
        "addr:postcode": "10719",
        "addr:street": "Pfalzburger Straße",
        "amenity": "nightclub",
        "check_date": "2024-07-27",
        "name": "al2 eventlocation berlin",
        "opening_hours": "\"nach Vereinbarung\"",
        "operator": "Alexander Schulzendorff",
        "phone": "+49 30 88917960",
        "website": "https://al2-eventlocation.de"
      }
    },
    {
      "type": "node",
      "id": 6341225967,
      "lat": 52.5111669,
      "lon": 13.4430356,
      "tags": {
        "addr:city": "Berlin",
        "addr:country": "DE",
        "addr:postcode": "10243",
        "addr:street": "Am Wriezener Bahnhof",
        "addr:suburb": "Friedrichshain",
        "alt_name": "Berghain Panorama Bar",
        "amenity": "nightclub",
        "contact:facebook": "https://www.facebook.com/BerghainPanoramaBarOfficial",
        "contact:instagram": "https://www.instagram.com/berghain_panoramabar",
        "contact:phone": "+49 30 29351830",
        "contact:ra": "https://ra.co/clubs/5031",
        "contact:website": "https://www.berghain.de",
        "live_music": "yes",
        "name": "Berghain",
        "nohousenumber": "yes",
        "operator": "Berghain OstGut GmbH",
        "smoking": "yes",
        "toilets:wheelchair": "yes",
        "wheelchair": "yes",
        "wheelchair:description": "keine Stufen, alles mit Rampen und Fahrstühlen zu erreichen, lediglich die Rampen im Garten lassen sich nur mit guter Armfunktion bewältigen, WCs sind mit Haltegriffen ausgestattet, aber nicht vollständig behindertengerecht",
        "wikidata": "Q136975",
        "wikipedia": "de:Berghain"
      }
    },
    {
      "type": "node",
      "id": 6381619922,
      "lat": 52.5306542,
      "lon": 13.4286665,
      "tags": {
        "addr:city": "Berlin",
        "addr:housenumber": "23A",
        "addr:postcode": "10405",
        "addr:street": "Greifswalder Straße",
        "amenity": "nightclub",
        "check_date": "2024-06-16",
        "contact:facebook": "https://www.facebook.com/Musikbrauerei",
        "name": "Musikbrauerei",
        "opening_hours": "Mo-Su 10:00-20:15"
      }
    },
    {
      "type": "node",
      "id": 6381637814,
      "lat": 52.5306327,
      "lon": 13.3667562,
      "tags": {
        "addr:city": "Berlin",
        "addr:housenumber": "50",
        "addr:postcode": "10557",
        "addr:street": "Heidestraße",
        "amenity": "nightclub",
        "name": "Trauma Bar und Kino",
        "smoking": "no",
        "website": "https://www.traumabarundkino.de/"
      }
    },
    {
      "type": "node",
      "id": 6441603779,
      "lat": 52.5060456,
      "lon": 13.3153141,
      "tags": {
        "addr:city": "Berlin",
        "addr:country": "DE",
        "addr:housenumber": "134",
        "addr:postcode": "10625",
        "addr:street": "Kantstraße",
        "addr:suburb": "Charlottenburg",
        "amenity": "nightclub",
        "contact:website": "http://www.newwestclub.de/",
        "name": "New West Club",
        "opening_hours:signed": "no",
        "wheelchair": "limited"
      }
    },
    {
      "type": "node",
      "id": 6482231157,
      "lat": 52.5299774,
      "lon": 13.4006925,
      "tags": {
        "addr:city": "Berlin",
        "addr:country": "DE",
        "addr:housenumber": "197-198",
        "addr:postcode": "10119",
        "addr:street": "Brunnenstraße",
        "addr:suburb": "Mitte",
        "amenity": "nightclub",
        "check_date": "2025-07-02",
        "check_date:smoking": "2025-07-02",
        "contact:phone": "+49 30 27590873",
        "contact:website": "https://www.cosmic-kaspar.de/",
        "description": "rentable",
        "name": "Cosmic Kaspar",
        "operator": "Mein Haus am See GmbH",
        "smoking": "no"
      }
    },
    {
      "type": "node",
      "id": 6573680438,
      "lat": 52.5227525,
      "lon": 13.2107129,
      "tags": {
        "addr:city": "Berlin",
        "addr:country": "DE",
        "addr:housenumber": "5",
        "addr:postcode": "13597",
        "addr:street": "Dorfstraße",
        "addr:suburb": "Spandau",
        "amenity": "nightclub",
        "contact:website": "https://ballhaus-spandau.club/",
        "name": "Ballhaus Spandau",
        "opening_hours:signed": "no",
        "wikidata": "Q805252",
        "wikimedia_commons": "Category:Ballhaus Spandau",
        "wikipedia": "de:Ballhaus Spandau"
      }
    },
    {
      "type": "node",
      "id": 7230925407,
      "lat": 52.5222381,
      "lon": 13.398307,
      "tags": {
        "amenity": "nightclub",
        "name": "Mokka Mitte Bar",
        "opening_hours": "Mo-Th 16:00-23:00; Fr 14:00-23:30; Sa 13:00-23:30; Su 12:30-22:00",
        "phone": "+493084710709",
        "smoking": "no",
        "website": "https://www.mokkamitte.de/"
      }
    },
    {
      "type": "node",
      "id": 8069721818,
      "lat": 52.4970681,
      "lon": 13.4650321,
      "tags": {
        "addr:city": "Berlin",
        "addr:country": "DE",
        "addr:housenumber": "1-2",
        "addr:postcode": "10245",
        "addr:street": "Alt-Stralau",
        "addr:suburb": "Friedrichshain",
        "alt_name": "Club OST",
        "amenity": "nightclub",
        "contact:facebook": "https://www.facebook.com/club.ost/",
        "contact:instagram": "https://www.instagram.com/club.ost/",
        "name": "OST",
        "phone": "+49 30 29369990",
        "website": "https://clubost.de/"
      }
    },
    {
      "type": "node",
      "id": 9216819283,
      "lat": 52.4599968,
      "lon": 13.5052662,
      "tags": {
        "addr:city": "Berlin",
        "addr:country": "DE",
        "addr:housenumber": "137",
        "addr:postcode": "12439",
        "addr:street": "Schnellerstraße",
        "addr:suburb": "Niederschöneweide",
        "amenity": "nightclub",
        "contact:website": "https://reviersuedost.de/",
        "name": "Revier Südost"
      }
    },
    {
      "type": "node",
      "id": 9271890630,
      "lat": 52.5893599,
      "lon": 13.2809654,
      "tags": {
        "amenity": "nightclub",
        "check_date:opening_hours": "2023-04-02",
        "name": "Entenkeller 2.0",
        "opening_hours:signed": "no",
        "phone": "+49 162 3692008"
      }
    },
    {
      "type": "node",
      "id": 9272743117,
      "lat": 52.5111747,
      "lon": 13.416812,
      "tags": {
        "addr:housenumber": "1",
        "addr:postcode": "10179",
        "addr:street": "Brückenstraße",
        "amenity": "nightclub",
        "check_date": "2025-06-30",
        "check_date:smoking": "2025-06-30",
        "name": "Melancholie 2",
        "opening_hours": "Su 16:00-04:00; Fr-Sa 23:00-10:00",
        "smoking": "no"
      }
    },
    {
      "type": "node",
      "id": 9662447417,
      "lat": 52.5248136,
      "lon": 13.4976566,
      "tags": {
        "addr:housenumber": "53B",
        "addr:postcode": "10365",
        "addr:street": "Herzbergstraße",
        "amenity": "nightclub",
        "name": "Velvet Monkey"
      }
    },
    {
      "type": "node",
      "id": 9683590917,
      "lat": 52.5381993,
      "lon": 13.3279584,
      "tags": {
        "addr:city": "Berlin",
        "addr:country": "DE",
        "addr:housenumber": "1",
        "addr:postcode": "13353",
        "addr:street": "Seestraße",
        "addr:suburb": "Charlottenburg-Nord",
        "amenity": "nightclub",
        "name": "Heideglühen",
        "opening_hours": "Sa 00:00-24:00; Su 00:00-06:00",
        "wheelchair": "limited"
      }
    },
    {
      "type": "node",
      "id": 9806828894,
      "lat": 52.5027268,
      "lon": 13.4453492,
      "tags": {
        "addr:city": "Berlin",
        "addr:country": "DE",
        "addr:housenumber": "78-80",
        "addr:postcode": "10243",
        "addr:street": "Mühlenstraße",
        "addr:suburb": "Friedrichshain",
        "amenity": "nightclub",
        "contact:email": "info@piratesberlin.com",
        "contact:phone": "+49 30 97002414",
        "contact:website": "https://piratesberlin.com/club/",
        "name": "Pirates Club",
        "operator": "Spreewies'n GmbH & Co. Beach Betriebsgesellschaft KG",
        "wheelchair": "limited"
      }
    },
    {
      "type": "node",
      "id": 9830787917,
      "lat": 52.4792421,
      "lon": 13.4997366,
      "tags": {
        "amenity": "nightclub",
        "check_date": "2024-11-02",
        "name": "MONOM",
        "smoking": "outside",
        "website": "https://www.monomsound.com/"
      }
    },
    {
      "type": "node",
      "id": 9895178218,
      "lat": 52.5058678,
      "lon": 13.4346441,
      "tags": {
        "addr:city": "Berlin",
        "addr:country": "DE",
        "addr:housenumber": "16",
        "addr:postcode": "10997",
        "addr:street": "Köpenicker Straße",
        "addr:suburb": "Kreuzberg",
        "amenity": "nightclub",
        "contact:facebook": "https://www.facebook.com/spindlerklattberlin",
        "contact:instagram": "https://www.instagram.com/spindlerklatt/",
        "contact:website": "https://spindlerklatt.com/",
        "name": "spindler & klatt",
        "wikidata": "Q116142643"
      }
    },
    {
      "type": "node",
      "id": 10621062970,
      "lat": 52.5130757,
      "lon": 13.4228651,
      "tags": {
        "addr:city": "Berlin",
        "addr:housenumber": "15—18",
        "addr:postcode": "10179",
        "addr:street": "Holzmarktstraße",
        "amenity": "nightclub",
        "contact:facebook": "Fitzroy.Berlin",
        "contact:instagram": "fitzroyclub",
        "description": "2nd address: S-Bahn Bogen 46",
        "email": "club@fitzroy-berlin.de",
        "image": "https://i.imgur.com/zRbEgb0.jpeg",
        "mapillary": "371476558518986",
        "name": "Fitzroy",
        "website": "https://fitzroy-berlin.de"
      }
    },
    {
      "type": "node",
      "id": 10672763641,
      "lat": 52.4752767,
      "lon": 13.2965109,
      "tags": {
        "amenity": "nightclub",
        "name": "The Hub"
      }
    },
    {
      "type": "node",
      "id": 11066768896,
      "lat": 52.4775471,
      "lon": 13.4594974,
      "tags": {
        "addr:city": "Berlin",
        "addr:country": "DE",
        "addr:housenumber": "1",
        "addr:postcode": "12057",
        "addr:street": "Ziegrastraße",
        "amenity": "nightclub",
        "contact:email": "info@s27.de",
        "contact:website": "https://falscherfisch.net/",
        "disused:amenity": "restaurant",
        "disused:name": "Marin",
        "name": "Falscher Fisch"
      }
    },
    {
      "type": "node",
      "id": 11435535669,
      "lat": 52.5509569,
      "lon": 13.3540571,
      "tags": {
        "amenity": "nightclub",
        "name:en": "Menagerie"
      }
    },
    {
      "type": "node",
      "id": 11472992147,
      "lat": 52.5115871,
      "lon": 13.4173531,
      "tags": {
        "amenity": "nightclub",
        "name": "Nachspiel - Afterhour @KitKat Club Berlin",
        "smoking": "no"
      }
    },
    {
      "type": "node",
      "id": 12137704154,
      "lat": 52.5030057,
      "lon": 13.407825,
      "tags": {
        "addr:city": "Berlin",
        "addr:housenumber": "30-35",
        "addr:postcode": "10969",
        "addr:street": "Lobeckstraße",
        "amenity": "nightclub",
        "name": "Kreuzwerk",
        "smoking": "no",
        "website": "https://kreuzwerk.berlin/"
      }
    },
    {
      "type": "node",
      "id": 12290743501,
      "lat": 52.5057271,
      "lon": 13.3045469,
      "tags": {
        "amenity": "nightclub",
        "name": "Sin City Tabledance"
      }
    },
    {
      "type": "node",
      "id": 12301286133,
      "lat": 52.5099265,
      "lon": 13.3142158,
      "tags": {
        "addr:housenumber": "87",
        "addr:street": "Leibnitzstraße",
        "amenity": "nightclub",
        "charge:conditional": "no @ (female;couple)",
        "contact:email": "info@moechtegern.com",
        "fee": "yes",
        "name": "Frivole Bar moechtegern",
        "nudism": "yes",
        "opening_hours": "Mo-Su 20:00-04:00",
        "operator": "Ingo Kaatz",
        "phone": "0152 58 521 471",
        "website": "https://moechtegern.com/"
      }
    },
    {
      "type": "node",
      "id": 12372968542,
      "lat": 52.5055769,
      "lon": 13.3380226,
      "tags": {
        "amenity": "nightclub",
        "name": "808"
      }
    },
    {
      "type": "node",
      "id": 12942103605,
      "lat": 52.4971313,
      "lon": 13.4529279,
      "tags": {
        "amenity": "nightclub",
        "check_date": "2025-06-21",
        "name": "Arena Club"
      }
    },
    {
      "type": "node",
      "id": 13235448541,
      "lat": 52.5502159,
      "lon": 13.443135,
      "tags": {
        "amenity": "nightclub",
        "contact:website": "https://brickhouse-berlin.com/",
        "live_music": "yes",
        "name": "Brickhouse Berlin"
      }
    },
    {
      "type": "way",
      "id": 23278633,
      "nodes": [
        3240648759,
        3240648758,
        11638672157,
        3240648753,
        3240648745,
        3240648733,
        1961638832,
        3240648732,
        3240648735,
        3240648741,
        3240648743,
        3240648744,
        3240648747,
        3240648759
      ],
      "tags": {
        "amenity": "nightclub",
        "building": "yes",
        "name": "Roadrunners Rock & Motor Club",
        "phone": "+49 30 78082991",
        "website": "http://www.roadrunners-paradise.de",
        "wheelchair": "limited"
      }
    },
    {
      "type": "way",
      "id": 24248500,
      "nodes": [
        262535398,
        262535399,
        262535400,
        1603176709,
        262535401,
        5366127390,
        262535398
      ],
      "tags": {
        "amenity": "nightclub",
        "building": "residential",
        "building:levels": "1",
        "email": "info@werk9.de",
        "name": "Werk9",
        "opening_hours:signed": "no",
        "phone": "+49 30 20165823",
        "roof:shape": "flat",
        "smoking": "no",
        "toilets:wheelchair": "yes",
        "website": "https://www.werk9.de/",
        "wheelchair": "limited",
        "wheelchair:description": "Haben für den Eingang eine Rampe, die muss bei Bedarf hingelegt werden. Eine behindertengerechte Toilette ist vorhanden."
      }
    },
    {
      "type": "way",
      "id": 24283864,
      "nodes": [
        3925592049,
        3925591955,
        3925591885,
        3925591991,
        3925592049
      ],
      "tags": {
        "addr:city": "Berlin",
        "addr:country": "DE",
        "addr:housenumber": "26",
        "addr:postcode": "10247",
        "addr:street": "Colbestraße",
        "addr:suburb": "Friedrichshain",
        "amenity": "nightclub",
        "building": "commercial",
        "building:levels": "1",
        "name": "Pride Warehouse",
        "wheelchair": "limited"
      }
    },
    {
      "type": "way",
      "id": 36908987,
      "nodes": [
        3845138577,
        3845138516,
        3845138548,
        3845138562,
        3845138606,
        3845138577
      ],
      "tags": {
        "addr:city": "Berlin",
        "addr:country": "DE",
        "addr:housenumber": "19-21",
        "addr:postcode": "10963",
        "addr:street": "Obentrautstraße",
        "amenity": "nightclub",
        "building": "industrial",
        "building:levels": "1",
        "contact:facebook": "https://www.facebook.com/gretchen.club/",
        "contact:instagram": "https://www.instagram.com/clubgretchen/",
        "contact:phone": "+49 30 25922702",
        "contact:twitter": "https://twitter.com/clubGRETCHEN/",
        "contact:website": "https://www.gretchen-club.de/",
        "email": "gretchen@gretchen-club.de",
        "name": "Gretchen",
        "opening_hours": "\"Je nach Veranstaltung\"",
        "roof:colour": "#74817e",
        "roof:levels": "0",
        "roof:shape": "gabled",
        "smoking": "isolated",
        "wheelchair": "yes"
      }
    },
    {
      "type": "way",
      "id": 41474936,
      "nodes": [
        507415404,
        507415409,
        507415413,
        507415416,
        507415404
      ],
      "tags": {
        "addr:city": "Berlin",
        "addr:country": "DE",
        "addr:housenumber": "64",
        "addr:postcode": "10439",
        "addr:street": "Dunckerstraße",
        "addr:suburb": "Prenzlauer Berg",
        "alt_name": "Dunckerclub",
        "amenity": "nightclub",
        "building": "school",
        "building:colour": "#b47876",
        "building:levels": "1",
        "building:material": "brick",
        "check_date": "2025-01-26",
        "check_date:opening_hours": "2025-01-26",
        "contact:facebook": "https://www.facebook.com/dunckerclub",
        "contact:instagram": "https://www.instagram.com/dunckerclub/",
        "contact:phone": "+49 30 4459509",
        "contact:website": "https://www.dunckerclub.de/",
        "image": "https://www.dunckerclub.de/bilder/duncker_aussen.jpg",
        "name": "Duncker",
        "opening_hours": "Mo 22:00-04:00; Fr-Sa 22:00-05:00; Su 12:00-19:00",
        "opening_hours:signed": "no",
        "roof:colour": "#3b3d46",
        "roof:levels": "1",
        "roof:shape": "hipped",
        "start_date": "1989",
        "toilets:wheelchair": "no",
        "wheelchair": "yes",
        "year_of_construction": "1913..1914"
      }
    },
    {
      "type": "way",
      "id": 42163697,
      "nodes": [
        524775128,
        1382853151,
        524775134,
        6274551978,
        1238527759,
        1238527763,
        1238527768,
        4308868165,
        1238527764,
        524775140,
        1238527760,
        524775143,
        11261182195,
        524775144,
        524775149,
        11261182184,
        1382853155,
        524775128
      ],
      "tags": {
        "addr:city": "Berlin",
        "addr:country": "DE",
        "addr:housenumber": "3",
        "addr:postcode": "10243",
        "addr:street": "An der Schillingbrücke",
        "addr:suburb": "Friedrichshain",
        "amenity": "nightclub",
        "building": "yes",
        "contact:facebook": "https://www.facebook.com/YAAM.Berlin",
        "contact:instagram": "https://www.instagram.com/yaam_berlin/",
        "contact:mobile": "+49 176 10051189",
        "contact:website": "https://www.yaam.de/",
        "name": "yaam",
        "opening_hours": "Mo-Su 11:00-24:00",
        "operator": "KULT. Verein für Jugendkultur e.V.",
        "wheelchair": "limited"
      }
    },
    {
      "type": "way",
      "id": 45001954,
      "nodes": [
        7026729849,
        7026729851,
        7026729850,
        3927812665,
        3927812664,
        3927776489,
        3927753534,
        3927776566,
        3927753537,
        3927753538,
        7026729849
      ],
      "tags": {
        "addr:housenumber": "99",
        "addr:postcode": "10245",
        "addr:street": "Revaler Straße",
        "amenity": "nightclub",
        "building": "commercial",
        "building:levels": "1",
        "contact:instagram": "lokschuppenberlin",
        "email": "contact@lokschuppen-berlin.com",
        "name": "Lokschuppen",
        "previously": "Suicide Circus",
        "smoking": "yes",
        "website": "https://www.lokschuppen-berlin.com/",
        "wheelchair": "limited"
      }
    },
    {
      "type": "way",
      "id": 45001955,
      "nodes": [
        570521354,
        7026729879,
        3927753545,
        570521355,
        570521356,
        570521357,
        3927771494,
        3927753533,
        365579461,
        1883612365,
        1883612364,
        1883612367,
        1883612368,
        1883612372,
        1883612371,
        365579465,
        1883612374,
        7026729884,
        1883612377,
        1883612378,
        1883612375,
        365579467,
        365579468,
        7026735089,
        570521354
      ],
      "tags": {
        "addr:city": "Berlin",
        "addr:country": "DE",
        "addr:housenumber": "99",
        "addr:postcode": "10245",
        "addr:street": "Revaler Straße",
        "addr:suburb": "Friedrichshain",
        "amenity": "nightclub",
        "building": "commercial",
        "building:levels": "1",
        "contact:email": "info@astra-berlin.de",
        "contact:facebook": "http://www.facebook.com/astraberlin",
        "contact:fax": "+49 30 69566842",
        "contact:instagram": "astraberlin",
        "contact:phone": "+49 30 20056767",
        "contact:website": "https://www.astra-berlin.de/",
        "drink:club-mate": "yes",
        "leisure": "music_venue",
        "live_music": "yes",
        "name": "Astra Kulturhaus",
        "opening_hours": "\"irregular events\"",
        "operator": "Kreuzberg Musik Produktion GmbH",
        "operator:type": "business",
        "owner": "Kreuzberg Musik Produktion GmbH",
        "smoking": "isolated",
        "toilets:wheelchair": "yes",
        "wheelchair": "yes",
        "wheelchair:description": "Tribüne rollstuhlgerecht bei Konzerten",
        "wikidata": "Q105762275",
        "wikimedia_commons": "Category:Astra Kulturhaus"
      }
    },
    {
      "type": "way",
      "id": 72984386,
      "nodes": [
        1478951175,
        1478951176,
        366367116,
        320457278,
        27411089,
        320457326,
        866236105,
        866236243,
        320457319,
        320457281,
        30216893,
        366367106,
        1478951174,
        1478951175
      ],
      "tags": {
        "amenity": "nightclub",
        "building": "viaduct",
        "check_date:opening_hours": "2025-10-08",
        "layer": "2",
        "name": "Golden Gate",
        "opening_hours:signed": "no",
        "roof:colour": "#414141",
        "roof:shape": "flat",
        "smoking": "yes",
        "toilets:wheelchair": "no",
        "website": "https://www.goldengate-berlin.de/",
        "wheelchair": "limited",
        "wikidata": "Q21036515"
      }
    },
    {
      "type": "way",
      "id": 108243893,
      "nodes": [
        1242254676,
        2927061140,
        2927064511,
        1242254663,
        2927056256,
        2927051893,
        1242254679,
        1242254660,
        1242254678,
        2927061153,
        2927059571,
        1242254676
      ],
      "tags": {
        "addr:city": "Berlin",
        "addr:country": "DE",
        "addr:housenumber": "23",
        "addr:postcode": "13086",
        "addr:street": "Langhansstraße",
        "addr:suburb": "Weißensee",
        "amenity": "nightclub",
        "building": "commercial",
        "name": "OC23",
        "opening_hours": "Mo-Th 13:00-20:00; Su 12:00-18:00",
        "phone": "+49 30 92092120",
        "source": "Geoportal Berlin / Hauskoordinaten",
        "website": "https://kinderring-berlin.de/oc23/"
      }
    },
    {
      "type": "way",
      "id": 118327391,
      "nodes": [
        1330890100,
        1330890105,
        1330890110,
        13015670033,
        1330890108,
        13015670034,
        13015670035,
        1330890106,
        1330890103,
        13015670036,
        1330890101,
        13015670037,
        13015670038,
        1330890096,
        1330890093,
        1330890088,
        1330890091,
        1330890095,
        1330890100
      ],
      "tags": {
        "amenity": "nightclub",
        "building": "boat",
        "building:levels": "2",
        "layer": "1",
        "name": "MS Hoppetosse",
        "seamark:hulk:category": "casino_boat",
        "seamark:type": "hulk",
        "wheelchair": "no"
      }
    },
    {
      "type": "way",
      "id": 119172796,
      "nodes": [
        1339739704,
        1339739742,
        2805957035,
        661432391,
        1010872725,
        280045509,
        11700332143,
        661432381,
        2805957033,
        1339739724,
        1339739733,
        280045506,
        1339739711,
        1339739704
      ],
      "tags": {
        "addr:city": "Berlin",
        "addr:country": "DE",
        "addr:housenumber": "23",
        "addr:postcode": "13347",
        "addr:street": "Gerichtstraße",
        "addr:suburb": "Gesundbrunnen",
        "amenity": "nightclub",
        "name": "Panke",
        "toilets:wheelchair": "no",
        "website": "https://www.pankeculture.com/"
      }
    },
    {
      "type": "way",
      "id": 123019464,
      "nodes": [
        3927776570,
        3927753541,
        3927812679,
        3927804285,
        3927804282,
        3927776495,
        3927753552,
        1435351949,
        3927776570
      ],
      "tags": {
        "addr:city": "Berlin",
        "addr:country": "DE",
        "addr:housenumber": "99",
        "addr:postcode": "10245",
        "addr:street": "Revaler Straße",
        "addr:suburb": "Friedrichshain",
        "amenity": "nightclub",
        "building": "yes",
        "contact:email": "info@badehaus-berlin.com",
        "contact:facebook": "https://www.facebook.com/Badehaus.Berlin",
        "contact:instagram": "https://www.instagram.com/badehaus_berlin/",
        "contact:phone": "+49 30 25933042",
        "contact:website": "http://www.badehaus-berlin.com/",
        "name": "Badehaus",
        "operator": "Badehaus Musik GmbH",
        "toilets:wheelchair": "yes",
        "wheelchair": "limited",
        "wheelchair:description": "enge Toilette"
      }
    },
    {
      "type": "way",
      "id": 123750257,
      "nodes": [
        1378972553,
        1378972549,
        5262253473,
        262805322,
        262805329,
        5262253474,
        1378972553
      ],
      "tags": {
        "amenity": "nightclub",
        "building": "residential",
        "building:levels": "3",
        "name": "Prägewerk",
        "smoking": "yes"
      }
    },
    {
      "type": "way",
      "id": 136852555,
      "nodes": [
        1501357820,
        1501357831,
        1501357853,
        1501357839,
        1501357820
      ],
      "tags": {
        "addr:city": "Berlin",
        "addr:country": "DE",
        "addr:housename": "Bogen 47",
        "addr:housenumber": "15—18",
        "addr:place": "Stadtbahnbogen",
        "addr:postcode": "10179",
        "addr:street": "Holzmarktstraße",
        "addr:suburb": "Mitte",
        "amenity": "nightclub",
        "building:levels": "1",
        "building:part": "yes",
        "contact:facebook": "lark.berlin",
        "contact:instagram": "lark.berlin",
        "email": "club@larkberlin.com",
        "layer": "1",
        "name": "LARK",
        "toilets:wheelchair": "no",
        "website": "https://larkberlin.com/",
        "wheelchair": "yes"
      }
    },
    {
      "type": "way",
      "id": 136852556,
      "nodes": [
        1501357847,
        1501357855,
        1501357863,
        1501357861,
        1501357847
      ],
      "tags": {
        "addr:city": "Berlin",
        "addr:country": "DE",
        "addr:housename": "Bogen 49",
        "addr:housenumber": "49",
        "addr:place": "Stadtbahnbogen",
        "addr:postcode": "10179",
        "addr:suburb": "Mitte",
        "amenity": "nightclub",
        "building:levels": "1",
        "building:part": "yes",
        "layer": "1",
        "name": "Hangar 49",
        "website": "https://hangar49.de/",
        "wheelchair": "yes"
      }
    },
    {
      "type": "way",
      "id": 148829988,
      "nodes": [
        1618964123,
        11702211628,
        4181957052,
        6154095487,
        4181957053,
        1395222177,
        4181957059,
        6154095496,
        1395222189,
        1395222180,
        1395222174,
        1395222161,
        594785892,
        1618964123
      ],
      "tags": {
        "addr:city": "Berlin",
        "addr:country": "DE",
        "addr:housenumber": "15",
        "addr:postcode": "10317",
        "addr:street": "Hauptstraße",
        "addr:suburb": "Rummelsburg",
        "amenity": "nightclub",
        "contact:facebook": "https://www.facebook.com/sisyface",
        "contact:instagram": "https://www.instagram.com/sisyphosberlin",
        "contact:ra": "https://ra.co/clubs/17118",
        "contact:website": "http://www.sisyphos-berlin.net",
        "culture": "open_air",
        "name": "Sisyphos",
        "name:etymology:wikidata": "Q102561",
        "name:etymology:wikipedia": "de:Sisyphos",
        "open_air": "yes",
        "opening_hours": "Mar-Dec: Sa,Su,PH 00:00-24:00",
        "operator": "Sisyphos Event GmbH",
        "smoking": "yes",
        "start_date": "2009",
        "toilets:wheelchair": "yes",
        "wheelchair": "yes",
        "wikidata": "Q21036516",
        "wikipedia": "de:Sisyphos (Berlin)"
      }
    },
    {
      "type": "way",
      "id": 167777311,
      "nodes": [
        1791397291,
        2937851390,
        2937851389,
        2937851388,
        2937851387,
        2937851386,
        2937887045,
        2937851391,
        1791397291
      ],
      "tags": {
        "amenity": "nightclub",
        "building": "yes",
        "leisure": "cultural_institution",
        "name": "Jugendschiff \"ReMiLi\"",
        "opening_hours": "Mo-Fr 14:00-20:00",
        "website": "https://remili.de/",
        "wheelchair": "no",
        "wikidata": "Q112861701",
        "wikimedia_commons": "Category:Remili (ship, 1906)"
      }
    },
    {
      "type": "way",
      "id": 172900722,
      "nodes": [
        1837420203,
        1837420220,
        1837420218,
        1837420234,
        1837420203
      ],
      "tags": {
        "amenity": "nightclub",
        "building": "yes",
        "name": "Fiese Remise"
      }
    },
    {
      "type": "way",
      "id": 277805717,
      "nodes": [
        5372996978,
        5372996977,
        1636830828,
        5372996965,
        2837703633,
        5372996966,
        1753806662,
        1753806661,
        5043904115,
        5372996985,
        5372996984,
        5372996989,
        5372996987,
        5372996988,
        5372996986,
        2837706036,
        2837706037,
        5372996970,
        5372996991,
        5372996990,
        1636830815,
        5372996978
      ],
      "tags": {
        "addr:city": "Berlin",
        "addr:floor": "0",
        "addr:housenumber": "2",
        "addr:postcode": "12435",
        "addr:street": "Am Flutgraben",
        "amenity": "nightclub",
        "bar": "yes",
        "check_date": "2024-08-28",
        "contact:facebook": "https://www.facebook.com/FestsaalKreuzberg/",
        "contact:instagram": "https://www.instagram.com/festsaalkreuzberg/",
        "level": "0",
        "name": "Festsaal Kreuzberg",
        "operator": "Neue Flutgraben Betriebsgesellschaft mbH & Co KG",
        "payment:cash": "yes",
        "payment:credit_cards": "yes",
        "payment:debit_cards": "yes",
        "payment:mastercard": "yes",
        "payment:visa": "yes",
        "phone": "+49 30 403655630",
        "ref:vatin": "DE310804941",
        "smoking": "outside",
        "source": "survey",
        "toilets": "yes",
        "website": "https://www.festsaal-kreuzberg.de/",
        "wheelchair": "yes",
        "wheelchair:description": "Durchs Tor kann man ebenerdig, kein Rolli-WC",
        "wikidata": "Q115794233",
        "wikimedia_commons": "File:20230916 xl 1534-Festsaal Kreuzberg 2.jpg"
      }
    },
    {
      "type": "way",
      "id": 286165789,
      "nodes": [
        2898073577,
        2898073578,
        2898073579,
        2898073580,
        2898073581,
        2898073582,
        2898073583,
        2898073584,
        2898073577
      ],
      "tags": {
        "addr:city": "Berlin",
        "addr:country": "DE",
        "addr:postcode": "10243",
        "addr:street": "Am Wriezener Bahnhof",
        "addr:suburb": "Friedrichshain",
        "amenity": "nightclub",
        "building": "yes",
        "check_date": "2023-11-03",
        "contact:facebook": "https://www.facebook.com/KantineamBerghain/",
        "email": "support@berghain.de",
        "name": "Berghain Kantine",
        "nohousenumber": "yes",
        "operator": "Berghain OstGut GmbH",
        "website": "https://www.berghain.berlin/de/program/kantine-am-berghain/",
        "wheelchair": "limited"
      }
    },
    {
      "type": "way",
      "id": 291111616,
      "nodes": [
        2945540620,
        11308512469,
        444970549,
        444970543,
        444970519,
        9961517147,
        9961517144,
        9961517145,
        9961517146,
        444970522,
        2945540620
      ],
      "tags": {
        "addr:housenumber": "3",
        "addr:postcode": "10997",
        "addr:street": "Schleusenufer",
        "amenity": "nightclub",
        "name": "ÆDEN",
        "opening_hours": "Tu 22:00-08:00; Th 22:00-08:00; Fr 22:00-10:00; Sa 18:00-10:00",
        "website": "http://aedenberlin.com",
        "wheelchair": "no"
      }
    },
    {
      "type": "way",
      "id": 293386107,
      "nodes": [
        2969755047,
        5247946860,
        2969769880,
        2969769777,
        2969769875,
        5247946859,
        2969755046,
        2969755047
      ],
      "tags": {
        "addr:city": "Berlin",
        "addr:country": "DE",
        "addr:housenumber": "25",
        "addr:postcode": "10243",
        "addr:street": "Holzmarktstraße",
        "addr:suburb": "Friedrichshain",
        "amenity": "nightclub",
        "building": "yes",
        "contact:email": "info@katerblau.de;hello@katerblau.de",
        "contact:facebook": "https://www.facebook.com/katerblau/events",
        "contact:instagram": "https://www.instagram.com/katerblaugram",
        "contact:phone": "+49 30 47361686",
        "contact:ra": "https://ra.co/clubs/99161",
        "contact:website": "http://www.katerblau.de",
        "name": "Kater Blau",
        "operator": "Katerclub GmbH",
        "smoking": "separated",
        "start_date": "2014",
        "toilets:wheelchair": "yes",
        "wheelchair": "yes",
        "wikidata": "Q2658747",
        "wikipedia": "de:Kater Blau"
      }
    },
    {
      "type": "way",
      "id": 342600129,
      "nodes": [
        1883612384,
        1883612382,
        1883612383,
        4441374962,
        1883612376,
        1883612366,
        1883612360,
        1883612359,
        6394788157,
        1883612361,
        1883612363,
        1883612362,
        1883612369,
        1883612370,
        1883612373,
        1883612379,
        1883612380,
        1883612381,
        1883612384
      ],
      "tags": {
        "addr:city": "Berlin",
        "addr:country": "DE",
        "addr:housenumber": "99",
        "addr:postcode": "10245",
        "addr:street": "Revaler Straße",
        "addr:suburb": "Friedrichshain",
        "amenity": "nightclub",
        "club": "culture",
        "contact:email": "info@maaya.de",
        "contact:instagram": "https://www.instagram.com/maaya_berlin/",
        "contact:phone": "+49 30 297766770",
        "leisure": "music_venue",
        "name": "Maaya",
        "opening_hours": "Tu-Th,Su 12:00-22:00; Fr,Sa 12:00-23:00; ",
        "operator": "Maaya Event GmbH",
        "website": "https://maaya.de/"
      }
    },
    {
      "type": "way",
      "id": 355476495,
      "nodes": [
        3610779777,
        662984151,
        662984152,
        662984153,
        3610779776,
        3610779778,
        662984156,
        662985700,
        662984157,
        3610779777
      ],
      "tags": {
        "addr:city": "Berlin",
        "addr:country": "DE",
        "addr:housenumber": "1-4",
        "addr:postcode": "10365",
        "addr:street": "Wiesenweg",
        "addr:suburb": "Lichtenberg",
        "amenity": "nightclub",
        "contact:website": "https://oxi-garten.de/",
        "name": "OXI Garten",
        "wheelchair": "limited"
      }
    },
    {
      "type": "way",
      "id": 379305718,
      "nodes": [
        3826014906,
        3826014907,
        3826013981,
        3826014908,
        3826014903,
        3826014904,
        8568796679,
        3826014896,
        3826014895,
        3826014886,
        6829881076,
        3826014887,
        3826014876,
        6829881072,
        6829881075,
        3826014875,
        3826014867,
        6829881080,
        6829881079,
        3826014850,
        3826014888,
        3826014889,
        7218845772,
        3826014891,
        3826014892,
        3826014894,
        3826014897,
        3826014898,
        3826014900,
        3826014902,
        3826014905,
        3826014901,
        3826014906
      ],
      "tags": {
        "addr:city": "Berlin",
        "addr:housenumber": "5",
        "addr:postcode": "10777",
        "addr:street": "Nollendorfplatz",
        "amenity": "nightclub",
        "brewery": "Krombacher;Starnberger",
        "building": "yes",
        "building:levels": "5",
        "email": "info@metropol-berlin.de",
        "name": "Metropol",
        "official_name": "Metropol Berlin",
        "opening_hours": "\"zu Veranstaltungen\"",
        "phone": "+49 30 403678560",
        "smoking": "separated",
        "source_ref:url": "https://metropol-berlin.de/contact",
        "toilets:wheelchair": "yes",
        "website": "https://metropol-berlin.de",
        "wheelchair": "yes",
        "wikidata": "Q1724204",
        "wikipedia": "de:Metropol (Berlin)"
      }
    },
    {
      "type": "way",
      "id": 684464913,
      "nodes": [
        365579637,
        6412719959,
        9698094768,
        365579634,
        365579635,
        365579636,
        365579637
      ],
      "tags": {
        "addr:city": "Berlin",
        "addr:country": "DE",
        "addr:housenumber": "99",
        "addr:postcode": "10245",
        "addr:street": "Revaler Straße",
        "addr:suburb": "Friedrichshain",
        "amenity": "nightclub",
        "building": "commercial",
        "building:levels": "1",
        "contact:instagram": "cassiopeia_berlin",
        "contact:website": "https://cassiopeia-berlin.de/",
        "live_music": "yes",
        "name": "Cassiopeia",
        "toilets:wheelchair": "yes",
        "wheelchair": "limited",
        "wikidata": "Q47163174",
        "wikimedia_commons": "Category:Cassiopeia (Berlin)"
      }
    },
    {
      "type": "way",
      "id": 1081145396,
      "nodes": [
        9909457394,
        9909457395,
        9909457396,
        9909457399,
        9909457397,
        9909457394
      ],
      "tags": {
        "addr:city": "Berlin",
        "addr:country": "DE",
        "addr:housenumber": "121",
        "addr:postcode": "10407",
        "addr:street": "Storkower Straße",
        "addr:suburb": "Prenzlauer Berg",
        "amenity": "nightclub",
        "contact:instagram": "https://www.instagram.com/abstrakt.berlin",
        "contact:phone": "+49 30 65832595",
        "contact:ra": "https://de.ra.co/clubs/233027",
        "name": "Abstrakt",
        "old_contact:facebook": "https://www.facebook.com/menschmeierberlin/events",
        "old_contact:ra": "https://ra.co/clubs/103373;https://ra.co/clubs/227831",
        "old_name:2015--2024-01-22": "Mensch Meier",
        "old_operator": "Mensch Meier GmbH",
        "old_wikidata": "Q105762292",
        "smoking": "no",
        "toilets:wheelchair": "yes",
        "wheelchair": "yes",
        "wifi": "no"
      }
    },
    {
      "type": "node",
      "id": 3845138516,
      "lat": 52.4958958,
      "lon": 13.3878081
    },
    {
      "type": "node",
      "id": 3845138548,
      "lat": 52.4959878,
      "lon": 13.3878872
    },
    {
      "type": "node",
      "id": 3845138562,
      "lat": 52.4960364,
      "lon": 13.3877381
    },
    {
      "type": "node",
      "id": 3845138577,
      "lat": 52.4960977,
      "lon": 13.3871979
    },
    {
      "type": "node",
      "id": 3845138606,
      "lat": 52.4961866,
      "lon": 13.387276
    },
    {
      "type": "node",
      "id": 3826013981,
      "lat": 52.4990801,
      "lon": 13.3526032
    },
    {
      "type": "node",
      "id": 3826014850,
      "lat": 52.4988409,
      "lon": 13.3530222
    },
    {
      "type": "node",
      "id": 3826014867,
      "lat": 52.4988398,
      "lon": 13.3524633
    },
    {
      "type": "node",
      "id": 3826014875,
      "lat": 52.4988477,
      "lon": 13.3524641
    },
    {
      "type": "node",
      "id": 3826014876,
      "lat": 52.4988604,
      "lon": 13.3523724
    },
    {
      "type": "node",
      "id": 3826014886,
      "lat": 52.4990194,
      "lon": 13.3524748
    },
    {
      "type": "node",
      "id": 3826014887,
      "lat": 52.4990223,
      "lon": 13.352387
    },
    {
      "type": "node",
      "id": 3826014888,
      "lat": 52.499026,
      "lon": 13.3530367
    },
    {
      "type": "node",
      "id": 3826014889,
      "lat": 52.4990265,
      "lon": 13.3530366
    },
    {
      "type": "node",
      "id": 3826014891,
      "lat": 52.4990298,
      "lon": 13.3529281
    },
    {
      "type": "node",
      "id": 3826014892,
      "lat": 52.4990341,
      "lon": 13.3529286
    },
    {
      "type": "node",
      "id": 3826014894,
      "lat": 52.4990506,
      "lon": 13.3529211
    },
    {
      "type": "node",
      "id": 3826014895,
      "lat": 52.4990513,
      "lon": 13.3524776
    },
    {
      "type": "node",
      "id": 3826014896,
      "lat": 52.4990605,
      "lon": 13.3524864
    },
    {
      "type": "node",
      "id": 3826014897,
      "lat": 52.4990613,
      "lon": 13.3528707
    },
    {
      "type": "node",
      "id": 3826014898,
      "lat": 52.4990617,
      "lon": 13.3528336
    },
    {
      "type": "node",
      "id": 3826014900,
      "lat": 52.4990692,
      "lon": 13.3528331
    },
    {
      "type": "node",
      "id": 3826014901,
      "lat": 52.4990702,
      "lon": 13.3527861
    },
    {
      "type": "node",
      "id": 3826014902,
      "lat": 52.4990727,
      "lon": 13.352825
    },
    {
      "type": "node",
      "id": 3826014903,
      "lat": 52.4990709,
      "lon": 13.3525784
    },
    {
      "type": "node",
      "id": 3826014904,
      "lat": 52.4990719,
      "lon": 13.3525213
    },
    {
      "type": "node",
      "id": 3826014905,
      "lat": 52.4990736,
      "lon": 13.3527873
    },
    {
      "type": "node",
      "id": 3826014906,
      "lat": 52.499074,
      "lon": 13.3526283
    },
    {
      "type": "node",
      "id": 3826014907,
      "lat": 52.4990796,
      "lon": 13.3526279
    },
    {
      "type": "node",
      "id": 3826014908,
      "lat": 52.4990806,
      "lon": 13.3525795
    },
    {
      "type": "node",
      "id": 6829881072,
      "lat": 52.4988489,
      "lon": 13.3523711
    },
    {
      "type": "node",
      "id": 6829881075,
      "lat": 52.4988477,
      "lon": 13.3524147
    },
    {
      "type": "node",
      "id": 6829881076,
      "lat": 52.4990209,
      "lon": 13.3524287
    },
    {
      "type": "node",
      "id": 6829881079,
      "lat": 52.4988445,
      "lon": 13.3529256
    },
    {
      "type": "node",
      "id": 6829881080,
      "lat": 52.4988265,
      "lon": 13.3529229
    },
    {
      "type": "node",
      "id": 7218845772,
      "lat": 52.4990283,
      "lon": 13.3529756
    },
    {
      "type": "node",
      "id": 8568796679,
      "lat": 52.4990686,
      "lon": 13.3525025
    },
    {
      "type": "node",
      "id": 262535398,
      "lat": 52.5092466,
      "lon": 13.3945099
    },
    {
      "type": "node",
      "id": 262535399,
      "lat": 52.509018,
      "lon": 13.3945517
    },
    {
      "type": "node",
      "id": 262535400,
      "lat": 52.5089981,
      "lon": 13.3941955
    },
    {
      "type": "node",
      "id": 262535401,
      "lat": 52.5092267,
      "lon": 13.3941583
    },
    {
      "type": "node",
      "id": 1603176709,
      "lat": 52.5090614,
      "lon": 13.3941835
    },
    {
      "type": "node",
      "id": 5366127390,
      "lat": 52.5092275,
      "lon": 13.3941738
    },
    {
      "type": "node",
      "id": 262805322,
      "lat": 52.5153032,
      "lon": 13.4083712
    },
    {
      "type": "node",
      "id": 262805329,
      "lat": 52.5154098,
      "lon": 13.4084273
    },
    {
      "type": "node",
      "id": 5262253473,
      "lat": 52.5152462,
      "lon": 13.4086439
    },
    {
      "type": "node",
      "id": 1378972549,
      "lat": 52.5151962,
      "lon": 13.4089268
    },
    {
      "type": "node",
      "id": 1378972553,
      "lat": 52.5153035,
      "lon": 13.4089833
    },
    {
      "type": "node",
      "id": 5262253474,
      "lat": 52.5153544,
      "lon": 13.4086999
    },
    {
      "type": "node",
      "id": 27411089,
      "lat": 52.5160904,
      "lon": 13.4168797
    },
    {
      "type": "node",
      "id": 30216893,
      "lat": 52.5158601,
      "lon": 13.4169456
    },
    {
      "type": "node",
      "id": 320457278,
      "lat": 52.516078,
      "lon": 13.4168222
    },
    {
      "type": "node",
      "id": 320457281,
      "lat": 52.5158564,
      "lon": 13.4170133
    },
    {
      "type": "node",
      "id": 320457319,
      "lat": 52.5158539,
      "lon": 13.4170725
    },
    {
      "type": "node",
      "id": 320457326,
      "lat": 52.5161015,
      "lon": 13.4169306
    },
    {
      "type": "node",
      "id": 366367106,
      "lat": 52.5158635,
      "lon": 13.4168744
    },
    {
      "type": "node",
      "id": 366367116,
      "lat": 52.5160666,
      "lon": 13.4167702
    },
    {
      "type": "node",
      "id": 866236105,
      "lat": 52.5161108,
      "lon": 13.4169735
    },
    {
      "type": "node",
      "id": 866236243,
      "lat": 52.515851,
      "lon": 13.4171337
    },
    {
      "type": "node",
      "id": 1478951174,
      "lat": 52.515866,
      "lon": 13.4168259
    },
    {
      "type": "node",
      "id": 1478951175,
      "lat": 52.5160562,
      "lon": 13.4167219
    },
    {
      "type": "node",
      "id": 1478951176,
      "lat": 52.5160617,
      "lon": 13.4167421
    },
    {
      "type": "node",
      "id": 280045506,
      "lat": 52.5450173,
      "lon": 13.3741226
    },
    {
      "type": "node",
      "id": 280045509,
      "lat": 52.5449378,
      "lon": 13.3743858
    },
    {
      "type": "node",
      "id": 661432381,
      "lat": 52.5449398,
      "lon": 13.3743632
    },
    {
      "type": "node",
      "id": 661432391,
      "lat": 52.5450386,
      "lon": 13.3743892
    },
    {
      "type": "node",
      "id": 1010872725,
      "lat": 52.5450364,
      "lon": 13.3744117
    },
    {
      "type": "node",
      "id": 1339739704,
      "lat": 52.5450648,
      "lon": 13.3740694
    },
    {
      "type": "node",
      "id": 1339739711,
      "lat": 52.5450446,
      "lon": 13.374092
    },
    {
      "type": "node",
      "id": 1339739724,
      "lat": 52.544865,
      "lon": 13.374161
    },
    {
      "type": "node",
      "id": 1339739733,
      "lat": 52.5449763,
      "lon": 13.3740283
    },
    {
      "type": "node",
      "id": 1339739742,
      "lat": 52.545139,
      "lon": 13.3742569
    },
    {
      "type": "node",
      "id": 2805957033,
      "lat": 52.5449418,
      "lon": 13.3743406
    },
    {
      "type": "node",
      "id": 2805957035,
      "lat": 52.5450408,
      "lon": 13.3743666
    },
    {
      "type": "node",
      "id": 11700332143,
      "lat": 52.5449384,
      "lon": 13.3743795
    },
    {
      "type": "node",
      "id": 1961638832,
      "lat": 52.529548,
      "lon": 13.4123974
    },
    {
      "type": "node",
      "id": 3240648732,
      "lat": 52.5296512,
      "lon": 13.4125044
    },
    {
      "type": "node",
      "id": 3240648733,
      "lat": 52.5296716,
      "lon": 13.412081
    },
    {
      "type": "node",
      "id": 3240648735,
      "lat": 52.5296897,
      "lon": 13.4124997
    },
    {
      "type": "node",
      "id": 3240648741,
      "lat": 52.5297398,
      "lon": 13.4125542
    },
    {
      "type": "node",
      "id": 3240648743,
      "lat": 52.5297601,
      "lon": 13.4125069
    },
    {
      "type": "node",
      "id": 3240648744,
      "lat": 52.5297672,
      "lon": 13.4125134
    },
    {
      "type": "node",
      "id": 3240648745,
      "lat": 52.5297691,
      "lon": 13.4122148
    },
    {
      "type": "node",
      "id": 3240648747,
      "lat": 52.5298006,
      "lon": 13.4124237
    },
    {
      "type": "node",
      "id": 3240648753,
      "lat": 52.5298405,
      "lon": 13.4122865
    },
    {
      "type": "node",
      "id": 3240648758,
      "lat": 52.5298462,
      "lon": 13.412287
    },
    {
      "type": "node",
      "id": 3240648759,
      "lat": 52.5298504,
      "lon": 13.4122937
    },
    {
      "type": "node",
      "id": 11638672157,
      "lat": 52.5298428,
      "lon": 13.4122826
    },
    {
      "type": "node",
      "id": 444970519,
      "lat": 52.4972611,
      "lon": 13.4491609
    },
    {
      "type": "node",
      "id": 444970522,
      "lat": 52.4971052,
      "lon": 13.4494277
    },
    {
      "type": "node",
      "id": 444970543,
      "lat": 52.4975372,
      "lon": 13.4495369
    },
    {
      "type": "node",
      "id": 444970549,
      "lat": 52.4973853,
      "lon": 13.4498327
    },
    {
      "type": "node",
      "id": 1330890096,
      "lat": 52.497532,
      "lon": 13.4545119
    },
    {
      "type": "node",
      "id": 1330890101,
      "lat": 52.4975562,
      "lon": 13.454439
    },
    {
      "type": "node",
      "id": 1330890103,
      "lat": 52.4975796,
      "lon": 13.4544146
    },
    {
      "type": "node",
      "id": 1330890106,
      "lat": 52.4975876,
      "lon": 13.4544138
    },
    {
      "type": "node",
      "id": 1330890108,
      "lat": 52.4976064,
      "lon": 13.4544657
    },
    {
      "type": "node",
      "id": 1330890110,
      "lat": 52.4976055,
      "lon": 13.4545128
    },
    {
      "type": "node",
      "id": 1636830815,
      "lat": 52.4967583,
      "lon": 13.4512779
    },
    {
      "type": "node",
      "id": 1636830828,
      "lat": 52.4970638,
      "lon": 13.4515065
    },
    {
      "type": "node",
      "id": 1753806661,
      "lat": 52.4971013,
      "lon": 13.4512122
    },
    {
      "type": "node",
      "id": 1753806662,
      "lat": 52.4971122,
      "lon": 13.4513017
    },
    {
      "type": "node",
      "id": 2837703633,
      "lat": 52.4970843,
      "lon": 13.4514188
    },
    {
      "type": "node",
      "id": 2837706036,
      "lat": 52.4967907,
      "lon": 13.4508335
    },
    {
      "type": "node",
      "id": 2837706037,
      "lat": 52.4967003,
      "lon": 13.4511953
    },
    {
      "type": "node",
      "id": 2945540620,
      "lat": 52.4970744,
      "lon": 13.4494746
    },
    {
      "type": "node",
      "id": 5043904115,
      "lat": 52.4970079,
      "lon": 13.4510367
    },
    {
      "type": "node",
      "id": 5372996965,
      "lat": 52.4970789,
      "lon": 13.4514394
    },
    {
      "type": "node",
      "id": 5372996966,
      "lat": 52.4970953,
      "lon": 13.4513773
    },
    {
      "type": "node",
      "id": 5372996970,
      "lat": 52.4967333,
      "lon": 13.451217
    },
    {
      "type": "node",
      "id": 5372996977,
      "lat": 52.4968324,
      "lon": 13.4523213
    },
    {
      "type": "node",
      "id": 5372996978,
      "lat": 52.4965382,
      "lon": 13.4520853
    },
    {
      "type": "node",
      "id": 5372996984,
      "lat": 52.4968721,
      "lon": 13.4508276
    },
    {
      "type": "node",
      "id": 5372996985,
      "lat": 52.4969091,
      "lon": 13.4508769
    },
    {
      "type": "node",
      "id": 5372996986,
      "lat": 52.4968013,
      "lon": 13.4508122
    },
    {
      "type": "node",
      "id": 5372996987,
      "lat": 52.4968303,
      "lon": 13.4507944
    },
    {
      "type": "node",
      "id": 5372996988,
      "lat": 52.496816,
      "lon": 13.4508001
    },
    {
      "type": "node",
      "id": 5372996989,
      "lat": 52.4968454,
      "lon": 13.4507947
    },
    {
      "type": "node",
      "id": 5372996990,
      "lat": 52.4967637,
      "lon": 13.4512577
    },
    {
      "type": "node",
      "id": 5372996991,
      "lat": 52.4967675,
      "lon": 13.4512405
    },
    {
      "type": "node",
      "id": 9961517144,
      "lat": 52.4971823,
      "lon": 13.4492715
    },
    {
      "type": "node",
      "id": 9961517145,
      "lat": 52.4971309,
      "lon": 13.4493595
    },
    {
      "type": "node",
      "id": 9961517146,
      "lat": 52.4971382,
      "lon": 13.4493711
    },
    {
      "type": "node",
      "id": 9961517147,
      "lat": 52.4971896,
      "lon": 13.4492832
    },
    {
      "type": "node",
      "id": 11308512469,
      "lat": 52.4973648,
      "lon": 13.449871
    },
    {
      "type": "node",
      "id": 13015670033,
      "lat": 52.4976071,
      "lon": 13.45449
    },
    {
      "type": "node",
      "id": 13015670034,
      "lat": 52.4976023,
      "lon": 13.4544449
    },
    {
      "type": "node",
      "id": 13015670035,
      "lat": 52.4975937,
      "lon": 13.4544237
    },
    {
      "type": "node",
      "id": 13015670036,
      "lat": 52.4975674,
      "lon": 13.4544232
    },
    {
      "type": "node",
      "id": 13015670037,
      "lat": 52.4975481,
      "lon": 13.4544587
    },
    {
      "type": "node",
      "id": 13015670038,
      "lat": 52.4975406,
      "lon": 13.4544827
    },
    {
      "type": "node",
      "id": 1330890088,
      "lat": 52.4974456,
      "lon": 13.4549559
    },
    {
      "type": "node",
      "id": 1330890091,
      "lat": 52.4974476,
      "lon": 13.4550484
    },
    {
      "type": "node",
      "id": 1330890093,
      "lat": 52.4974658,
      "lon": 13.4548097
    },
    {
      "type": "node",
      "id": 1330890095,
      "lat": 52.4974914,
      "lon": 13.4549784
    },
    {
      "type": "node",
      "id": 1330890100,
      "lat": 52.4975343,
      "lon": 13.4548587
    },
    {
      "type": "node",
      "id": 1330890105,
      "lat": 52.4976005,
      "lon": 13.4545458
    },
    {
      "type": "node",
      "id": 1791397291,
      "lat": 52.4580843,
      "lon": 13.5170582
    },
    {
      "type": "node",
      "id": 2937851386,
      "lat": 52.4579325,
      "lon": 13.5178736
    },
    {
      "type": "node",
      "id": 2937851387,
      "lat": 52.4579415,
      "lon": 13.5179322
    },
    {
      "type": "node",
      "id": 2937851388,
      "lat": 52.4579589,
      "lon": 13.5179688
    },
    {
      "type": "node",
      "id": 2937851389,
      "lat": 52.4579849,
      "lon": 13.5179444
    },
    {
      "type": "node",
      "id": 2937851390,
      "lat": 52.4580044,
      "lon": 13.5178884
    },
    {
      "type": "node",
      "id": 2937851391,
      "lat": 52.4580148,
      "lon": 13.5170436
    },
    {
      "type": "node",
      "id": 2937887045,
      "lat": 52.4579838,
      "lon": 13.5173564
    },
    {
      "type": "node",
      "id": 594785892,
      "lat": 52.4932765,
      "lon": 13.4908218
    },
    {
      "type": "node",
      "id": 1395222161,
      "lat": 52.4936147,
      "lon": 13.4916897
    },
    {
      "type": "node",
      "id": 1395222174,
      "lat": 52.493699,
      "lon": 13.4917144
    },
    {
      "type": "node",
      "id": 1395222177,
      "lat": 52.4937419,
      "lon": 13.492086
    },
    {
      "type": "node",
      "id": 1395222180,
      "lat": 52.4938194,
      "lon": 13.491684
    },
    {
      "type": "node",
      "id": 1395222189,
      "lat": 52.4938609,
      "lon": 13.4915935
    },
    {
      "type": "node",
      "id": 1618964123,
      "lat": 52.4927637,
      "lon": 13.4914026
    },
    {
      "type": "node",
      "id": 4181957052,
      "lat": 52.4932842,
      "lon": 13.4927505
    },
    {
      "type": "node",
      "id": 4181957053,
      "lat": 52.4933579,
      "lon": 13.4929245
    },
    {
      "type": "node",
      "id": 4181957059,
      "lat": 52.4939181,
      "lon": 13.4916615
    },
    {
      "type": "node",
      "id": 6154095487,
      "lat": 52.4932937,
      "lon": 13.4927736
    },
    {
      "type": "node",
      "id": 6154095496,
      "lat": 52.4939081,
      "lon": 13.4916493
    },
    {
      "type": "node",
      "id": 11702211628,
      "lat": 52.4929284,
      "lon": 13.4918394
    },
    {
      "type": "node",
      "id": 524775128,
      "lat": 52.5092757,
      "lon": 13.4301347
    },
    {
      "type": "node",
      "id": 524775134,
      "lat": 52.5089514,
      "lon": 13.4308627
    },
    {
      "type": "node",
      "id": 524775140,
      "lat": 52.5091857,
      "lon": 13.4310142
    },
    {
      "type": "node",
      "id": 524775143,
      "lat": 52.5094758,
      "lon": 13.4305544
    },
    {
      "type": "node",
      "id": 524775144,
      "lat": 52.5094381,
      "lon": 13.4304578
    },
    {
      "type": "node",
      "id": 524775149,
      "lat": 52.5094761,
      "lon": 13.4303758
    },
    {
      "type": "node",
      "id": 1238527759,
      "lat": 52.5088866,
      "lon": 13.4310628
    },
    {
      "type": "node",
      "id": 1238527760,
      "lat": 52.5092388,
      "lon": 13.4310787
    },
    {
      "type": "node",
      "id": 1238527763,
      "lat": 52.5090024,
      "lon": 13.4312021
    },
    {
      "type": "node",
      "id": 1238527764,
      "lat": 52.5091471,
      "lon": 13.4310978
    },
    {
      "type": "node",
      "id": 1238527768,
      "lat": 52.5090831,
      "lon": 13.431021
    },
    {
      "type": "node",
      "id": 1382853151,
      "lat": 52.50904,
      "lon": 13.4306639
    },
    {
      "type": "node",
      "id": 1382853155,
      "lat": 52.5093614,
      "lon": 13.4302378
    },
    {
      "type": "node",
      "id": 1837420203,
      "lat": 52.5057848,
      "lon": 13.4322671
    },
    {
      "type": "node",
      "id": 1837420218,
      "lat": 52.5059622,
      "lon": 13.4323497
    },
    {
      "type": "node",
      "id": 1837420220,
      "lat": 52.5059216,
      "lon": 13.4324376
    },
    {
      "type": "node",
      "id": 1837420234,
      "lat": 52.5058254,
      "lon": 13.4321791
    },
    {
      "type": "node",
      "id": 4308868165,
      "lat": 52.5091114,
      "lon": 13.431055
    },
    {
      "type": "node",
      "id": 6274551978,
      "lat": 52.5089672,
      "lon": 13.4308817
    },
    {
      "type": "node",
      "id": 11261182184,
      "lat": 52.5094614,
      "lon": 13.4303582
    },
    {
      "type": "node",
      "id": 11261182195,
      "lat": 52.5094669,
      "lon": 13.4304938
    },
    {
      "type": "node",
      "id": 1501357820,
      "lat": 52.5129229,
      "lon": 13.4227891
    },
    {
      "type": "node",
      "id": 1501357831,
      "lat": 52.5130021,
      "lon": 13.4226143
    },
    {
      "type": "node",
      "id": 1501357839,
      "lat": 52.5130452,
      "lon": 13.422939
    },
    {
      "type": "node",
      "id": 1501357847,
      "lat": 52.513093,
      "lon": 13.4223744
    },
    {
      "type": "node",
      "id": 1501357853,
      "lat": 52.5131245,
      "lon": 13.4227642
    },
    {
      "type": "node",
      "id": 1501357855,
      "lat": 52.5131647,
      "lon": 13.4221986
    },
    {
      "type": "node",
      "id": 1501357861,
      "lat": 52.5132228,
      "lon": 13.4225174
    },
    {
      "type": "node",
      "id": 1501357863,
      "lat": 52.5132945,
      "lon": 13.4223415
    },
    {
      "type": "node",
      "id": 2969755046,
      "lat": 52.511943,
      "lon": 13.4251395
    },
    {
      "type": "node",
      "id": 2969755047,
      "lat": 52.5120276,
      "lon": 13.4252054
    },
    {
      "type": "node",
      "id": 2969769777,
      "lat": 52.5118618,
      "lon": 13.4255155
    },
    {
      "type": "node",
      "id": 2969769875,
      "lat": 52.5118206,
      "lon": 13.4253595
    },
    {
      "type": "node",
      "id": 2969769880,
      "lat": 52.5119873,
      "lon": 13.4255266
    },
    {
      "type": "node",
      "id": 5247946859,
      "lat": 52.5118627,
      "lon": 13.4252818
    },
    {
      "type": "node",
      "id": 5247946860,
      "lat": 52.5120105,
      "lon": 13.4253373
    },
    {
      "type": "node",
      "id": 2898073577,
      "lat": 52.5115321,
      "lon": 13.4426035
    },
    {
      "type": "node",
      "id": 2898073578,
      "lat": 52.5115177,
      "lon": 13.44258
    },
    {
      "type": "node",
      "id": 2898073579,
      "lat": 52.5114867,
      "lon": 13.4426314
    },
    {
      "type": "node",
      "id": 2898073580,
      "lat": 52.5114201,
      "lon": 13.4425228
    },
    {
      "type": "node",
      "id": 2898073581,
      "lat": 52.5114853,
      "lon": 13.4424148
    },
    {
      "type": "node",
      "id": 2898073582,
      "lat": 52.5114732,
      "lon": 13.4423951
    },
    {
      "type": "node",
      "id": 2898073583,
      "lat": 52.5115377,
      "lon": 13.4422882
    },
    {
      "type": "node",
      "id": 2898073584,
      "lat": 52.5116308,
      "lon": 13.44244
    },
    {
      "type": "node",
      "id": 365579461,
      "lat": 52.5069446,
      "lon": 13.4518172
    },
    {
      "type": "node",
      "id": 365579465,
      "lat": 52.5074847,
      "lon": 13.4521322
    },
    {
      "type": "node",
      "id": 365579467,
      "lat": 52.5076014,
      "lon": 13.4519145
    },
    {
      "type": "node",
      "id": 365579468,
      "lat": 52.5077228,
      "lon": 13.4519725
    },
    {
      "type": "node",
      "id": 570521354,
      "lat": 52.5077399,
      "lon": 13.4518764
    },
    {
      "type": "node",
      "id": 570521355,
      "lat": 52.5071608,
      "lon": 13.4516
    },
    {
      "type": "node",
      "id": 570521356,
      "lat": 52.5071723,
      "lon": 13.4515353
    },
    {
      "type": "node",
      "id": 570521357,
      "lat": 52.5070182,
      "lon": 13.4514618
    },
    {
      "type": "node",
      "id": 1883612359,
      "lat": 52.5067194,
      "lon": 13.4528247
    },
    {
      "type": "node",
      "id": 1883612360,
      "lat": 52.506838,
      "lon": 13.4521544
    },
    {
      "type": "node",
      "id": 1883612361,
      "lat": 52.5068467,
      "lon": 13.4528847
    },
    {
      "type": "node",
      "id": 1883612362,
      "lat": 52.5068577,
      "lon": 13.4531242
    },
    {
      "type": "node",
      "id": 1883612363,
      "lat": 52.5068938,
      "lon": 13.4529094
    },
    {
      "type": "node",
      "id": 1883612364,
      "lat": 52.5069168,
      "lon": 13.4520143
    },
    {
      "type": "node",
      "id": 1883612365,
      "lat": 52.5069512,
      "lon": 13.4518203
    },
    {
      "type": "node",
      "id": 1883612366,
      "lat": 52.5069652,
      "lon": 13.4522219
    },
    {
      "type": "node",
      "id": 1883612367,
      "lat": 52.5070221,
      "lon": 13.4520645
    },
    {
      "type": "node",
      "id": 1883612368,
      "lat": 52.5070568,
      "lon": 13.4518695
    },
    {
      "type": "node",
      "id": 1883612369,
      "lat": 52.5071105,
      "lon": 13.4532481
    },
    {
      "type": "node",
      "id": 1883612370,
      "lat": 52.5071505,
      "lon": 13.4530307
    },
    {
      "type": "node",
      "id": 1883612371,
      "lat": 52.507271,
      "lon": 13.4520302
    },
    {
      "type": "node",
      "id": 1883612372,
      "lat": 52.5072806,
      "lon": 13.4519763
    },
    {
      "type": "node",
      "id": 1883612373,
      "lat": 52.5074436,
      "lon": 13.453175
    },
    {
      "type": "node",
      "id": 1883612374,
      "lat": 52.5074863,
      "lon": 13.4521233
    },
    {
      "type": "node",
      "id": 1883612375,
      "lat": 52.5075822,
      "lon": 13.4520229
    },
    {
      "type": "node",
      "id": 1883612376,
      "lat": 52.5075641,
      "lon": 13.452507
    },
    {
      "type": "node",
      "id": 1883612377,
      "lat": 52.5075851,
      "lon": 13.4521704
    },
    {
      "type": "node",
      "id": 1883612378,
      "lat": 52.507609,
      "lon": 13.4520357
    },
    {
      "type": "node",
      "id": 1883612379,
      "lat": 52.5075868,
      "lon": 13.4532435
    },
    {
      "type": "node",
      "id": 1883612380,
      "lat": 52.5076293,
      "lon": 13.4530135
    },
    {
      "type": "node",
      "id": 1883612381,
      "lat": 52.507679,
      "lon": 13.4530404
    },
    {
      "type": "node",
      "id": 1883612382,
      "lat": 52.5076655,
      "lon": 13.4528061
    },
    {
      "type": "node",
      "id": 1883612383,
      "lat": 52.5076971,
      "lon": 13.4526345
    },
    {
      "type": "node",
      "id": 1883612384,
      "lat": 52.5077175,
      "lon": 13.4528316
    },
    {
      "type": "node",
      "id": 3927753533,
      "lat": 52.5069836,
      "lon": 13.4515972
    },
    {
      "type": "node",
      "id": 3927753534,
      "lat": 52.5071012,
      "lon": 13.4511225
    },
    {
      "type": "node",
      "id": 3927753537,
      "lat": 52.5071398,
      "lon": 13.4508967
    },
    {
      "type": "node",
      "id": 3927753538,
      "lat": 52.5072593,
      "lon": 13.4509571
    },
    {
      "type": "node",
      "id": 3927753545,
      "lat": 52.507547,
      "lon": 13.4517843
    },
    {
      "type": "node",
      "id": 3927771494,
      "lat": 52.5069934,
      "lon": 13.4516018
    },
    {
      "type": "node",
      "id": 3927776489,
      "lat": 52.5070866,
      "lon": 13.4511999
    },
    {
      "type": "node",
      "id": 3927776566,
      "lat": 52.5070977,
      "lon": 13.4511207
    },
    {
      "type": "node",
      "id": 3927812664,
      "lat": 52.5071999,
      "lon": 13.4512572
    },
    {
      "type": "node",
      "id": 3927812665,
      "lat": 52.5072151,
      "lon": 13.4511737
    },
    {
      "type": "node",
      "id": 4441374962,
      "lat": 52.5076522,
      "lon": 13.4525491
    },
    {
      "type": "node",
      "id": 6394788157,
      "lat": 52.5067652,
      "lon": 13.4528446
    },
    {
      "type": "node",
      "id": 7026729849,
      "lat": 52.5072312,
      "lon": 13.4511066
    },
    {
      "type": "node",
      "id": 7026729850,
      "lat": 52.5072511,
      "lon": 13.4511919
    },
    {
      "type": "node",
      "id": 7026729851,
      "lat": 52.507264,
      "lon": 13.4511231
    },
    {
      "type": "node",
      "id": 7026729879,
      "lat": 52.5075511,
      "lon": 13.4517863
    },
    {
      "type": "node",
      "id": 7026729884,
      "lat": 52.507557,
      "lon": 13.452157
    },
    {
      "type": "node",
      "id": 7026735089,
      "lat": 52.5077356,
      "lon": 13.4519006
    },
    {
      "type": "node",
      "id": 365579634,
      "lat": 52.5073321,
      "lon": 13.4546968
    },
    {
      "type": "node",
      "id": 365579635,
      "lat": 52.5072141,
      "lon": 13.4546402
    },
    {
      "type": "node",
      "id": 365579636,
      "lat": 52.5071704,
      "lon": 13.4548862
    },
    {
      "type": "node",
      "id": 365579637,
      "lat": 52.5072058,
      "lon": 13.4549032
    },
    {
      "type": "node",
      "id": 1435351949,
      "lat": 52.507683,
      "lon": 13.4552039
    },
    {
      "type": "node",
      "id": 3927753541,
      "lat": 52.5075215,
      "lon": 13.4550251
    },
    {
      "type": "node",
      "id": 3927753552,
      "lat": 52.507657,
      "lon": 13.455193
    },
    {
      "type": "node",
      "id": 3927776495,
      "lat": 52.507642,
      "lon": 13.4552755
    },
    {
      "type": "node",
      "id": 3927776570,
      "lat": 52.5077003,
      "lon": 13.4551114
    },
    {
      "type": "node",
      "id": 3927804282,
      "lat": 52.5074576,
      "lon": 13.4551863
    },
    {
      "type": "node",
      "id": 3927804285,
      "lat": 52.5074807,
      "lon": 13.4550612
    },
    {
      "type": "node",
      "id": 3927812679,
      "lat": 52.5075113,
      "lon": 13.4550752
    },
    {
      "type": "node",
      "id": 6412719959,
      "lat": 52.5072764,
      "lon": 13.4549371
    },
    {
      "type": "node",
      "id": 9698094768,
      "lat": 52.5072878,
      "lon": 13.4549424
    },
    {
      "type": "node",
      "id": 3925591885,
      "lat": 52.5122528,
      "lon": 13.4633849
    },
    {
      "type": "node",
      "id": 3925591955,
      "lat": 52.512297,
      "lon": 13.4631509
    },
    {
      "type": "node",
      "id": 3925591991,
      "lat": 52.5123223,
      "lon": 13.4634199
    },
    {
      "type": "node",
      "id": 3925592049,
      "lat": 52.5123664,
      "lon": 13.4631854
    },
    {
      "type": "node",
      "id": 507415404,
      "lat": 52.5461956,
      "lon": 13.4235712
    },
    {
      "type": "node",
      "id": 507415409,
      "lat": 52.546287,
      "lon": 13.4236839
    },
    {
      "type": "node",
      "id": 507415413,
      "lat": 52.5462124,
      "lon": 13.4238574
    },
    {
      "type": "node",
      "id": 507415416,
      "lat": 52.5461111,
      "lon": 13.4237341
    },
    {
      "type": "node",
      "id": 9909457394,
      "lat": 52.5354607,
      "lon": 13.4524935
    },
    {
      "type": "node",
      "id": 9909457395,
      "lat": 52.5351579,
      "lon": 13.4527779
    },
    {
      "type": "node",
      "id": 9909457396,
      "lat": 52.5349579,
      "lon": 13.4522325
    },
    {
      "type": "node",
      "id": 9909457397,
      "lat": 52.5352597,
      "lon": 13.4519388
    },
    {
      "type": "node",
      "id": 9909457399,
      "lat": 52.5352242,
      "lon": 13.4519736
    },
    {
      "type": "node",
      "id": 662984151,
      "lat": 52.5075262,
      "lon": 13.4752021
    },
    {
      "type": "node",
      "id": 662984152,
      "lat": 52.5073752,
      "lon": 13.4751132
    },
    {
      "type": "node",
      "id": 662984153,
      "lat": 52.5074619,
      "lon": 13.4747176
    },
    {
      "type": "node",
      "id": 662984156,
      "lat": 52.5078007,
      "lon": 13.4747884
    },
    {
      "type": "node",
      "id": 662984157,
      "lat": 52.5077523,
      "lon": 13.4750333
    },
    {
      "type": "node",
      "id": 662985700,
      "lat": 52.507775,
      "lon": 13.4749151
    },
    {
      "type": "node",
      "id": 3610779776,
      "lat": 52.507494,
      "lon": 13.474568
    },
    {
      "type": "node",
      "id": 3610779777,
      "lat": 52.507698,
      "lon": 13.4753
    },
    {
      "type": "node",
      "id": 3610779778,
      "lat": 52.5078088,
      "lon": 13.4747491
    },
    {
      "type": "node",
      "id": 1242254660,
      "lat": 52.55064,
      "lon": 13.4448804
    },
    {
      "type": "node",
      "id": 1242254663,
      "lat": 52.5505248,
      "lon": 13.4450201
    },
    {
      "type": "node",
      "id": 1242254676,
      "lat": 52.5507673,
      "lon": 13.4453208
    },
    {
      "type": "node",
      "id": 1242254678,
      "lat": 52.5508188,
      "lon": 13.4450266
    },
    {
      "type": "node",
      "id": 1242254679,
      "lat": 52.550528,
      "lon": 13.4447935
    },
    {
      "type": "node",
      "id": 2927051893,
      "lat": 52.5504833,
      "lon": 13.4449354
    },
    {
      "type": "node",
      "id": 2927056256,
      "lat": 52.5505366,
      "lon": 13.4449815
    },
    {
      "type": "node",
      "id": 2927059571,
      "lat": 52.5508437,
      "lon": 13.4450795
    },
    {
      "type": "node",
      "id": 2927061140,
      "lat": 52.5507314,
      "lon": 13.445291
    },
    {
      "type": "node",
      "id": 2927061153,
      "lat": 52.55081,
      "lon": 13.4450516
    },
    {
      "type": "node",
      "id": 2927064511,
      "lat": 52.5507575,
      "lon": 13.4452051
    }
  ]
}